{
"type": "FeatureCollection",
"name": "hospitals_singapore",
"crs": { "type": "name", "properties": { "name": "urn:ogc:def:crs:OGC:1.3:CRS84" } },
"features": [
{ "type": "Feature", "properties": { "fid": 1, "full_id": "n1834274490", "osm_id": "1834274490", "osm_type": "node", "amenity": null, "description": null, "substance": null, "particle_accelerator": null, "man_made": null, "mobile": null, "email": null, "addr:unit": null, "parking": null, "phone": null, "operator:type": null, "opening_hours": null, "name:ms": null, "contact:website": null, "contact:instagram": null, "contact:fax": null, "contact:facebook": null, "contact:email": null, "addr:postcode": null, "addr:country": null, "addr:city": null, "level": null, "healthcare:speciality": null, "addr:street": null, "addr:housenumber": null, "website": null, "name:en": null, "wheelchair": null, "name:zh": null, "operator": null, "name": null, "healthcare": null, "barrier": null, "access": null, "entrance": "yes" }, "geometry": { "type": "Point", "coordinates": [ 103.8447879, 1.32118 ] } },
{ "type": "Feature", "properties": { "fid": 2, "full_id": "n2659553390", "osm_id": "2659553390", "osm_type": "node", "amenity": null, "description": null, "substance": null, "particle_accelerator": null, "man_made": null, "mobile": null, "email": null, "addr:unit": null, "parking": null, "phone": null, "operator:type": null, "opening_hours": null, "name:ms": null, "contact:website": null, "contact:instagram": null, "contact:fax": null, "contact:facebook": null, "contact:email": null, "addr:postcode": null, "addr:country": null, "addr:city": null, "level": null, "healthcare:speciality": null, "addr:street": null, "addr:housenumber": null, "website": null, "name:en": null, "wheelchair": null, "name:zh": null, "operator": null, "name": null, "healthcare": null, "barrier": "gate", "access": "no", "entrance": null }, "geometry": { "type": "Point", "coordinates": [ 103.8504326, 1.3230222 ] } },
{ "type": "Feature", "properties": { "fid": 3, "full_id": "n3359272118", "osm_id": "3359272118", "osm_type": "node", "amenity": null, "description": null, "substance": null, "particle_accelerator": null, "man_made": null, "mobile": null, "email": null, "addr:unit": null, "parking": null, "phone": null, "operator:type": null, "opening_hours": null, "name:ms": null, "contact:website": null, "contact:instagram": null, "contact:fax": null, "contact:facebook": null, "contact:email": null, "addr:postcode": null, "addr:country": null, "addr:city": null, "level": null, "healthcare:speciality": null, "addr:street": null, "addr:housenumber": null, "website": null, "name:en": null, "wheelchair": null, "name:zh": null, "operator": null, "name": null, "healthcare": null, "barrier": null, "access": null, "entrance": "service" }, "geometry": { "type": "Point", "coordinates": [ 103.7439287, 1.3345867 ] } },
{ "type": "Feature", "properties": { "fid": 4, "full_id": "n4004913148", "osm_id": "4004913148", "osm_type": "node", "amenity": "hospital", "description": null, "substance": null, "particle_accelerator": null, "man_made": null, "mobile": null, "email": null, "addr:unit": null, "parking": null, "phone": null, "operator:type": null, "opening_hours": null, "name:ms": null, "contact:website": null, "contact:instagram": null, "contact:fax": null, "contact:facebook": null, "contact:email": null, "addr:postcode": null, "addr:country": null, "addr:city": null, "level": null, "healthcare:speciality": null, "addr:street": null, "addr:housenumber": null, "website": null, "name:en": null, "wheelchair": null, "name:zh": null, "operator": "Eastern Healthcare Alliance", "name": "Integrated Building (CGH-SACH)", "healthcare": "hospital", "barrier": null, "access": null, "entrance": null }, "geometry": { "type": "Point", "coordinates": [ 103.9483102, 1.3413012 ] } },
{ "type": "Feature", "properties": { "fid": 5, "full_id": "n4800589700", "osm_id": "4800589700", "osm_type": "node", "amenity": "hospital", "description": null, "substance": null, "particle_accelerator": null, "man_made": null, "mobile": null, "email": null, "addr:unit": null, "parking": null, "phone": null, "operator:type": null, "opening_hours": null, "name:ms": null, "contact:website": null, "contact:instagram": null, "contact:fax": null, "contact:facebook": null, "contact:email": null, "addr:postcode": null, "addr:country": null, "addr:city": null, "level": null, "healthcare:speciality": null, "addr:street": null, "addr:housenumber": null, "website": null, "name:en": null, "wheelchair": "yes", "name:zh": "心理卫生学院", "operator": null, "name": "Institute of Mental Health", "healthcare": "hospital", "barrier": null, "access": null, "entrance": null }, "geometry": { "type": "Point", "coordinates": [ 103.8845994, 1.3818667 ] } },
{ "type": "Feature", "properties": { "fid": 6, "full_id": "n5123276736", "osm_id": "5123276736", "osm_type": "node", "amenity": "parking_entrance", "description": null, "substance": null, "particle_accelerator": null, "man_made": null, "mobile": null, "email": null, "addr:unit": null, "parking": null, "phone": null, "operator:type": null, "opening_hours": null, "name:ms": null, "contact:website": null, "contact:instagram": null, "contact:fax": null, "contact:facebook": null, "contact:email": null, "addr:postcode": null, "addr:country": null, "addr:city": null, "level": null, "healthcare:speciality": null, "addr:street": null, "addr:housenumber": null, "website": null, "name:en": null, "wheelchair": null, "name:zh": null, "operator": null, "name": null, "healthcare": null, "barrier": null, "access": null, "entrance": null }, "geometry": { "type": "Point", "coordinates": [ 103.8568922, 1.3008377 ] } },
{ "type": "Feature", "properties": { "fid": 7, "full_id": "n5254679789", "osm_id": "5254679789", "osm_type": "node", "amenity": "parking_entrance", "description": null, "substance": null, "particle_accelerator": null, "man_made": null, "mobile": null, "email": null, "addr:unit": null, "parking": null, "phone": null, "operator:type": null, "opening_hours": null, "name:ms": null, "contact:website": null, "contact:instagram": null, "contact:fax": null, "contact:facebook": null, "contact:email": null, "addr:postcode": null, "addr:country": null, "addr:city": null, "level": null, "healthcare:speciality": null, "addr:street": null, "addr:housenumber": null, "website": null, "name:en": null, "wheelchair": null, "name:zh": null, "operator": null, "name": null, "healthcare": null, "barrier": null, "access": null, "entrance": null }, "geometry": { "type": "Point", "coordinates": [ 103.9504765, 1.3404845 ] } },
{ "type": "Feature", "properties": { "fid": 8, "full_id": "n5599594021", "osm_id": "5599594021", "osm_type": "node", "amenity": "hospital", "description": null, "substance": null, "particle_accelerator": null, "man_made": null, "mobile": null, "email": null, "addr:unit": null, "parking": null, "phone": null, "operator:type": null, "opening_hours": null, "name:ms": null, "contact:website": null, "contact:instagram": null, "contact:fax": null, "contact:facebook": null, "contact:email": null, "addr:postcode": null, "addr:country": null, "addr:city": null, "level": null, "healthcare:speciality": null, "addr:street": null, "addr:housenumber": null, "website": "http://www.proton.sg", "name:en": "Singapore Institute of Advanced Medicine - Proton Therapy Centre", "wheelchair": null, "name:zh": null, "operator": null, "name": "Singapore Advanced Medicine Proton Therapy", "healthcare": "hospital", "barrier": null, "access": null, "entrance": null }, "geometry": { "type": "Point", "coordinates": [ 103.7931057, 1.3010276 ] } },
{ "type": "Feature", "properties": { "fid": 9, "full_id": "n5599599523", "osm_id": "5599599523", "osm_type": "node", "amenity": "hospital", "description": null, "substance": null, "particle_accelerator": null, "man_made": null, "mobile": null, "email": null, "addr:unit": null, "parking": null, "phone": null, "operator:type": null, "opening_hours": null, "name:ms": null, "contact:website": null, "contact:instagram": null, "contact:fax": null, "contact:facebook": null, "contact:email": null, "addr:postcode": null, "addr:country": null, "addr:city": null, "level": null, "healthcare:speciality": null, "addr:street": "Outram Road", "addr:housenumber": "20", "website": "https://www.nccs.com.sg/", "name:en": null, "wheelchair": null, "name:zh": "新癌症中心质子治疗中心", "operator": null, "name": "National Cancer Centre Singapore Proton Therapy Centre", "healthcare": "hospital", "barrier": null, "access": null, "entrance": null }, "geometry": { "type": "Point", "coordinates": [ 103.8380544, 1.2813333 ] } },
{ "type": "Feature", "properties": { "fid": 10, "full_id": "n5717278581", "osm_id": "5717278581", "osm_type": "node", "amenity": "hospital", "description": null, "substance": null, "particle_accelerator": null, "man_made": null, "mobile": null, "email": null, "addr:unit": null, "parking": null, "phone": null, "operator:type": null, "opening_hours": null, "name:ms": null, "contact:website": null, "contact:instagram": null, "contact:fax": null, "contact:facebook": null, "contact:email": null, "addr:postcode": null, "addr:country": null, "addr:city": null, "level": "1", "healthcare:speciality": "emergency", "addr:street": null, "addr:housenumber": null, "website": null, "name:en": null, "wheelchair": null, "name:zh": "急诊中心", "operator": "Alexandra Hospital", "name": "Urgent Care Centre", "healthcare": "hospital", "barrier": null, "access": null, "entrance": null }, "geometry": { "type": "Point", "coordinates": [ 103.8016072, 1.2869166 ] } },
{ "type": "Feature", "properties": { "fid": 11, "full_id": "n6746490215", "osm_id": "6746490215", "osm_type": "node", "amenity": "hospital", "description": null, "substance": null, "particle_accelerator": null, "man_made": null, "mobile": null, "email": null, "addr:unit": null, "parking": null, "phone": "+65 6363 1818", "operator:type": "private_for_profit", "opening_hours": "24/7", "name:ms": "Hospital Farrer Park", "contact:website": "https://www.farrerpark.com/hospital/ContactUs/Pages/ContactUs.aspx", "contact:instagram": "https://www.instagram.com/farrerparkhospital/", "contact:fax": "+65 6705 2728", "contact:facebook": "https://www.facebook.com/farrerparkhospital", "contact:email": "enquiries@farrerpark.com", "addr:postcode": "217562", "addr:country": "SG", "addr:city": "Singapore", "level": null, "healthcare:speciality": null, "addr:street": "Farrer Park Station Road", "addr:housenumber": "1", "website": "https://www.farrerpark.com/hospital/", "name:en": null, "wheelchair": null, "name:zh": "花拉公园医院", "operator": "The Farrer Park Company", "name": "Farrer Park Hospital", "healthcare": "hospital", "barrier": null, "access": null, "entrance": null }, "geometry": { "type": "Point", "coordinates": [ 103.854, 1.3126 ] } },
{ "type": "Feature", "properties": { "fid": 12, "full_id": "n7143761653", "osm_id": "7143761653", "osm_type": "node", "amenity": "hospital", "description": null, "substance": null, "particle_accelerator": null, "man_made": null, "mobile": null, "email": null, "addr:unit": null, "parking": null, "phone": null, "operator:type": null, "opening_hours": null, "name:ms": null, "contact:website": null, "contact:instagram": null, "contact:fax": null, "contact:facebook": null, "contact:email": null, "addr:postcode": "258748", "addr:country": null, "addr:city": "Singapore", "level": null, "healthcare:speciality": "dermatology", "addr:street": "Serene Centre #02-03", "addr:housenumber": null, "website": null, "name:en": null, "wheelchair": null, "name:zh": null, "operator": null, "name": "Priya Sen Skin & Laser Centre", "healthcare": "hospital", "barrier": null, "access": null, "entrance": null }, "geometry": { "type": "Point", "coordinates": [ 103.8136561, 1.3225665 ] } },
{ "type": "Feature", "properties": { "fid": 13, "full_id": "n7495551308", "osm_id": "7495551308", "osm_type": "node", "amenity": "parking_entrance", "description": null, "substance": null, "particle_accelerator": null, "man_made": null, "mobile": null, "email": null, "addr:unit": null, "parking": "underground", "phone": null, "operator:type": null, "opening_hours": null, "name:ms": null, "contact:website": null, "contact:instagram": null, "contact:fax": null, "contact:facebook": null, "contact:email": null, "addr:postcode": null, "addr:country": null, "addr:city": null, "level": null, "healthcare:speciality": null, "addr:street": null, "addr:housenumber": null, "website": null, "name:en": null, "wheelchair": null, "name:zh": null, "operator": null, "name": null, "healthcare": null, "barrier": null, "access": null, "entrance": null }, "geometry": { "type": "Point", "coordinates": [ 103.84692, 1.3117169 ] } },
{ "type": "Feature", "properties": { "fid": 14, "full_id": "n8894273783", "osm_id": "8894273783", "osm_type": "node", "amenity": "hospital", "description": null, "substance": null, "particle_accelerator": null, "man_made": null, "mobile": null, "email": null, "addr:unit": null, "parking": null, "phone": null, "operator:type": null, "opening_hours": null, "name:ms": null, "contact:website": null, "contact:instagram": null, "contact:fax": null, "contact:facebook": null, "contact:email": null, "addr:postcode": null, "addr:country": null, "addr:city": null, "level": null, "healthcare:speciality": null, "addr:street": null, "addr:housenumber": null, "website": null, "name:en": "Blk 101, TTSH Foot and Limb Center", "wheelchair": "yes", "name:zh": null, "operator": null, "name": "Blk 101, TTSH Foot and Limb Center", "healthcare": "hospital", "barrier": null, "access": null, "entrance": null }, "geometry": { "type": "Point", "coordinates": [ 103.8484559, 1.3206085 ] } },
{ "type": "Feature", "properties": { "fid": 15, "full_id": "n9152442812", "osm_id": "9152442812", "osm_type": "node", "amenity": "hospital", "description": null, "substance": null, "particle_accelerator": null, "man_made": null, "mobile": null, "email": null, "addr:unit": null, "parking": null, "phone": null, "operator:type": null, "opening_hours": null, "name:ms": null, "contact:website": null, "contact:instagram": null, "contact:fax": null, "contact:facebook": null, "contact:email": null, "addr:postcode": null, "addr:country": null, "addr:city": null, "level": null, "healthcare:speciality": null, "addr:street": null, "addr:housenumber": null, "website": null, "name:en": null, "wheelchair": null, "name:zh": null, "operator": null, "name": "National University Hospital", "healthcare": "hospital", "barrier": null, "access": null, "entrance": null }, "geometry": { "type": "Point", "coordinates": [ 103.7830593, 1.2941992 ] } },
{ "type": "Feature", "properties": { "fid": 16, "full_id": "n9723990867", "osm_id": "9723990867", "osm_type": "node", "amenity": "hospital", "description": null, "substance": null, "particle_accelerator": null, "man_made": null, "mobile": "+65 96552101", "email": "info@starmedspecialist.com", "addr:unit": "#05-01", "parking": null, "phone": "+65 63226333", "operator:type": null, "opening_hours": null, "name:ms": null, "contact:website": null, "contact:instagram": null, "contact:fax": null, "contact:facebook": null, "contact:email": null, "addr:postcode": "217565", "addr:country": "SG", "addr:city": "Singapore", "level": null, "healthcare:speciality": null, "addr:street": "Farrer Park Station Road", "addr:housenumber": "12", "website": "https://starmedspecialist.com/", "name:en": null, "wheelchair": null, "name:zh": null, "operator": null, "name": "StarMed Specialist Centre", "healthcare": null, "barrier": null, "access": null, "entrance": null }, "geometry": { "type": "Point", "coordinates": [ 103.8546429, 1.3122814 ] } },
{ "type": "Feature", "properties": { "fid": 17, "full_id": "n9808392965", "osm_id": "9808392965", "osm_type": "node", "amenity": "taxi", "description": null, "substance": null, "particle_accelerator": null, "man_made": null, "mobile": null, "email": null, "addr:unit": null, "parking": null, "phone": null, "operator:type": null, "opening_hours": null, "name:ms": null, "contact:website": null, "contact:instagram": null, "contact:fax": null, "contact:facebook": null, "contact:email": null, "addr:postcode": null, "addr:country": null, "addr:city": null, "level": null, "healthcare:speciality": null, "addr:street": null, "addr:housenumber": null, "website": null, "name:en": null, "wheelchair": null, "name:zh": null, "operator": null, "name": null, "healthcare": null, "barrier": null, "access": null, "entrance": null }, "geometry": { "type": "Point", "coordinates": [ 103.8566313, 1.3010729 ] } },
{ "type": "Feature", "properties": { "fid": 18, "full_id": "n10301741631", "osm_id": "10301741631", "osm_type": "node", "amenity": "hospital", "description": null, "substance": null, "particle_accelerator": null, "man_made": null, "mobile": null, "email": null, "addr:unit": null, "parking": null, "phone": null, "operator:type": null, "opening_hours": null, "name:ms": null, "contact:website": null, "contact:instagram": null, "contact:fax": null, "contact:facebook": null, "contact:email": null, "addr:postcode": null, "addr:country": null, "addr:city": null, "level": null, "healthcare:speciality": null, "addr:street": null, "addr:housenumber": null, "website": null, "name:en": null, "wheelchair": null, "name:zh": null, "operator": null, "name": "Nursing Training Centre", "healthcare": "hospital", "barrier": null, "access": null, "entrance": null }, "geometry": { "type": "Point", "coordinates": [ 103.801972, 1.2870419 ] } },
{ "type": "Feature", "properties": { "fid": 19, "full_id": "n10858968181", "osm_id": "10858968181", "osm_type": "node", "amenity": "hospital", "description": null, "substance": null, "particle_accelerator": null, "man_made": null, "mobile": null, "email": null, "addr:unit": null, "parking": null, "phone": null, "operator:type": null, "opening_hours": null, "name:ms": null, "contact:website": null, "contact:instagram": null, "contact:fax": null, "contact:facebook": null, "contact:email": null, "addr:postcode": null, "addr:country": null, "addr:city": null, "level": null, "healthcare:speciality": null, "addr:street": null, "addr:housenumber": null, "website": null, "name:en": null, "wheelchair": null, "name:zh": null, "operator": null, "name": "Maria Hospital", "healthcare": null, "barrier": null, "access": null, "entrance": null }, "geometry": { "type": "Point", "coordinates": [ 103.7595047, 1.4659796 ] } },
{ "type": "Feature", "properties": { "fid": 20, "full_id": "n10899296569", "osm_id": "10899296569", "osm_type": "node", "amenity": "hospital", "description": null, "substance": null, "particle_accelerator": null, "man_made": null, "mobile": null, "email": null, "addr:unit": null, "parking": null, "phone": null, "operator:type": null, "opening_hours": null, "name:ms": "Pusat Ujian & Vaksinasi Bersama Woodlands", "contact:website": null, "contact:instagram": null, "contact:fax": null, "contact:facebook": null, "contact:email": null, "addr:postcode": null, "addr:country": null, "addr:city": null, "level": null, "healthcare:speciality": null, "addr:street": null, "addr:housenumber": null, "website": null, "name:en": null, "wheelchair": null, "name:zh": "兀兰联合检测与疫苗接种中心", "operator": null, "name": "Woodlands Joint Testing & Vaccination Centre", "healthcare": "hospital", "barrier": null, "access": null, "entrance": null }, "geometry": { "type": "Point", "coordinates": [ 103.7865619, 1.4376172 ] } },
{ "type": "Feature", "properties": { "fid": 21, "full_id": "n11381484494", "osm_id": "11381484494", "osm_type": "node", "amenity": null, "description": null, "substance": null, "particle_accelerator": null, "man_made": null, "mobile": null, "email": null, "addr:unit": null, "parking": null, "phone": null, "operator:type": null, "opening_hours": null, "name:ms": null, "contact:website": null, "contact:instagram": null, "contact:fax": null, "contact:facebook": null, "contact:email": null, "addr:postcode": null, "addr:country": null, "addr:city": null, "level": null, "healthcare:speciality": null, "addr:street": null, "addr:housenumber": null, "website": null, "name:en": null, "wheelchair": null, "name:zh": null, "operator": null, "name": null, "healthcare": null, "barrier": null, "access": null, "entrance": "staircase" }, "geometry": { "type": "Point", "coordinates": [ 103.8460466, 1.3238634 ] } },
{ "type": "Feature", "properties": { "fid": 22, "full_id": "n11462165516", "osm_id": "11462165516", "osm_type": "node", "amenity": "hospital", "description": null, "substance": "proton", "particle_accelerator": "circular", "man_made": "particle_accelerator", "mobile": null, "email": null, "addr:unit": null, "parking": null, "phone": null, "operator:type": null, "opening_hours": null, "name:ms": null, "contact:website": null, "contact:instagram": null, "contact:fax": null, "contact:facebook": null, "contact:email": null, "addr:postcode": null, "addr:country": null, "addr:city": null, "level": null, "healthcare:speciality": "radiotherapy", "addr:street": null, "addr:housenumber": null, "website": null, "name:en": null, "wheelchair": null, "name:zh": null, "operator": "Mount Elizabeth", "name": "Mount Elizabeth Proton Therapy Centre", "healthcare": "hospital", "barrier": null, "access": null, "entrance": null }, "geometry": { "type": "Point", "coordinates": [ 103.8450626, 1.3224903 ] } },
{ "type": "Feature", "properties": { "fid": 23, "full_id": "n11584408977", "osm_id": "11584408977", "osm_type": "node", "amenity": null, "description": null, "substance": null, "particle_accelerator": null, "man_made": null, "mobile": null, "email": null, "addr:unit": null, "parking": null, "phone": null, "operator:type": null, "opening_hours": null, "name:ms": null, "contact:website": null, "contact:instagram": null, "contact:fax": null, "contact:facebook": null, "contact:email": null, "addr:postcode": null, "addr:country": null, "addr:city": null, "level": null, "healthcare:speciality": null, "addr:street": null, "addr:housenumber": null, "website": null, "name:en": null, "wheelchair": null, "name:zh": null, "operator": null, "name": null, "healthcare": null, "barrier": null, "access": null, "entrance": "yes" }, "geometry": { "type": "Point", "coordinates": [ 103.8573788, 1.3014894 ] } },
{ "type": "Feature", "properties": { "fid": 24, "full_id": "n13199896801", "osm_id": "13199896801", "osm_type": "node", "amenity": "hospital", "description": null, "substance": null, "particle_accelerator": null, "man_made": null, "mobile": null, "email": null, "addr:unit": null, "parking": null, "phone": null, "operator:type": null, "opening_hours": null, "name:ms": null, "contact:website": null, "contact:instagram": null, "contact:fax": null, "contact:facebook": null, "contact:email": null, "addr:postcode": "258499", "addr:country": null, "addr:city": null, "level": "8", "healthcare:speciality": null, "addr:street": "Napier Road", "addr:housenumber": "6", "website": null, "name:en": null, "wheelchair": null, "name:zh": null, "operator": null, "name": "Gleneagles Medical Centre", "healthcare": null, "barrier": null, "access": null, "entrance": null }, "geometry": { "type": "Point", "coordinates": [ 103.8202554, 1.3071589 ] } },
{ "type": "Feature", "properties": { "fid": 25, "full_id": "n13245292326", "osm_id": "13245292326", "osm_type": "node", "amenity": "hospital", "description": "Life coaching In Singapore", "substance": null, "particle_accelerator": null, "man_made": null, "mobile": null, "email": "tancc@gastromed.com.sg", "addr:unit": null, "parking": null, "phone": "+65 6471 2212", "operator:type": null, "opening_hours": "Monday to Friday (9:00AM - 17:00PM)", "name:ms": null, "contact:website": null, "contact:instagram": null, "contact:fax": null, "contact:facebook": "https://www.linkedin.com/in/chi-chiu-tan-new-life-coach-doctor/", "contact:email": null, "addr:postcode": "258499", "addr:country": null, "addr:city": "Singapore", "level": null, "healthcare:speciality": "coach", "addr:street": "Napier Road", "addr:housenumber": "6", "website": "https://newlifecoachdr.com/", "name:en": null, "wheelchair": null, "name:zh": null, "operator": null, "name": "New Life Coach Doctor", "healthcare": "hospital", "barrier": null, "access": null, "entrance": null }, "geometry": { "type": "Point", "coordinates": [ 103.820416, 1.3063204 ] } },
{ "type": "Feature", "properties": { "fid": 26, "full_id": "n13476295896", "osm_id": "13476295896", "osm_type": "node", "amenity": "parking_entrance", "description": null, "substance": null, "particle_accelerator": null, "man_made": null, "mobile": null, "email": null, "addr:unit": null, "parking": "underground", "phone": null, "operator:type": null, "opening_hours": null, "name:ms": null, "contact:website": null, "contact:instagram": null, "contact:fax": null, "contact:facebook": null, "contact:email": null, "addr:postcode": null, "addr:country": null, "addr:city": null, "level": null, "healthcare:speciality": null, "addr:street": null, "addr:housenumber": null, "website": null, "name:en": null, "wheelchair": null, "name:zh": null, "operator": null, "name": null, "healthcare": null, "barrier": null, "access": null, "entrance": null }, "geometry": { "type": "Point", "coordinates": [ 103.8468814, 1.3117563 ] } },
{ "type": "Feature", "properties": { "fid": 27, "full_id": "n13478669904", "osm_id": "13478669904", "osm_type": "node", "amenity": null, "description": null, "substance": null, "particle_accelerator": null, "man_made": null, "mobile": null, "email": null, "addr:unit": null, "parking": null, "phone": null, "operator:type": null, "opening_hours": null, "name:ms": null, "contact:website": null, "contact:instagram": null, "contact:fax": null, "contact:facebook": null, "contact:email": null, "addr:postcode": null, "addr:country": null, "addr:city": null, "level": null, "healthcare:speciality": null, "addr:street": null, "addr:housenumber": null, "website": null, "name:en": null, "wheelchair": null, "name:zh": null, "operator": null, "name": null, "healthcare": null, "barrier": null, "access": null, "entrance": "yes" }, "geometry": { "type": "Point", "coordinates": [ 103.799585, 1.2865822 ] } },
{ "type": "Feature", "properties": { "fid": 28, "full_id": "n13736925890", "osm_id": "13736925890", "osm_type": "node", "amenity": null, "description": null, "substance": null, "particle_accelerator": null, "man_made": null, "mobile": null, "email": null, "addr:unit": null, "parking": null, "phone": null, "operator:type": null, "opening_hours": null, "name:ms": null, "contact:website": null, "contact:instagram": null, "contact:fax": null, "contact:facebook": null, "contact:email": null, "addr:postcode": null, "addr:country": null, "addr:city": null, "level": null, "healthcare:speciality": null, "addr:street": null, "addr:housenumber": null, "website": null, "name:en": null, "wheelchair": null, "name:zh": null, "operator": null, "name": null, "healthcare": null, "barrier": "gate", "access": null, "entrance": null }, "geometry": { "type": "Point", "coordinates": [ 103.8808568, 1.3216126 ] } },
{ "type": "Feature", "properties": { "fid": 29, "full_id": "n13736925908", "osm_id": "13736925908", "osm_type": "node", "amenity": null, "description": null, "substance": null, "particle_accelerator": null, "man_made": null, "mobile": null, "email": null, "addr:unit": null, "parking": null, "phone": null, "operator:type": null, "opening_hours": null, "name:ms": null, "contact:website": null, "contact:instagram": null, "contact:fax": null, "contact:facebook": null, "contact:email": null, "addr:postcode": null, "addr:country": null, "addr:city": null, "level": null, "healthcare:speciality": null, "addr:street": null, "addr:housenumber": null, "website": null, "name:en": null, "wheelchair": null, "name:zh": null, "operator": null, "name": null, "healthcare": null, "barrier": "gate", "access": null, "entrance": null }, "geometry": { "type": "Point", "coordinates": [ 103.8813269, 1.3220559 ] } },
{ "type": "Feature", "properties": { "fid": 30, "full_id": "n13806085076", "osm_id": "13806085076", "osm_type": "node", "amenity": null, "description": null, "substance": null, "particle_accelerator": null, "man_made": null, "mobile": null, "email": null, "addr:unit": null, "parking": null, "phone": null, "operator:type": null, "opening_hours": null, "name:ms": null, "contact:website": null, "contact:instagram": null, "contact:fax": null, "contact:facebook": null, "contact:email": null, "addr:postcode": null, "addr:country": null, "addr:city": null, "level": null, "healthcare:speciality": null, "addr:street": null, "addr:housenumber": null, "website": null, "name:en": null, "wheelchair": null, "name:zh": null, "operator": null, "name": null, "healthcare": null, "barrier": "gate", "access": null, "entrance": null }, "geometry": { "type": "Point", "coordinates": [ 103.7995241, 1.2859871 ] } }
]
}
