{
"type": "FeatureCollection",
"name": "toilets_mong_kok",
"crs": { "type": "name", "properties": { "name": "urn:ogc:def:crs:OGC:1.3:CRS84" } },
"features": [
{ "type": "Feature", "properties": { "fid": 1, "full_id": "n2414714388", "osm_id": "2414714388", "osm_type": "node", "amenity": "toilets", "toilets:handwashing": null, "male": null, "female": null, "check_date": null, "level": null, "wheelchair": null, "toilets:disposal": null, "operator": null, "access": null, "portable": "yes", "opening_hours": "24/7", "name:zh": "上海街／窩打老道公廁", "name:en": "Shanghai Street / Waterloo Road Public Toilet", "name": "上海街／窩打老道公廁 Shanghai Street / Waterloo Road Public Toilet", "fee": "no" }, "geometry": { "type": "Point", "coordinates": [ 114.1692748, 22.3126546 ] } },
{ "type": "Feature", "properties": { "fid": 2, "full_id": "n3230276785", "osm_id": "3230276785", "osm_type": "node", "amenity": "toilets", "toilets:handwashing": null, "male": null, "female": null, "check_date": null, "level": null, "wheelchair": "yes", "toilets:disposal": "flush", "operator": "FEHD", "access": "yes", "portable": null, "opening_hours": null, "name:zh": "砵蘭街公廁", "name:en": "Portland Street Public Toilet", "name": "砵蘭街公廁 Portland Street Public Toilet", "fee": "no" }, "geometry": { "type": "Point", "coordinates": [ 114.1689012, 22.3169585 ] } },
{ "type": "Feature", "properties": { "fid": 3, "full_id": "n3230278838", "osm_id": "3230278838", "osm_type": "node", "amenity": "toilets", "toilets:handwashing": null, "male": null, "female": null, "check_date": null, "level": null, "wheelchair": null, "toilets:disposal": null, "operator": null, "access": null, "portable": null, "opening_hours": null, "name:zh": null, "name:en": null, "name": null, "fee": null }, "geometry": { "type": "Point", "coordinates": [ 114.1675339, 22.3178629 ] } },
{ "type": "Feature", "properties": { "fid": 4, "full_id": "n3230283918", "osm_id": "3230283918", "osm_type": "node", "amenity": "toilets", "toilets:handwashing": null, "male": null, "female": null, "check_date": null, "level": null, "wheelchair": null, "toilets:disposal": null, "operator": null, "access": null, "portable": null, "opening_hours": null, "name:zh": null, "name:en": null, "name": null, "fee": null }, "geometry": { "type": "Point", "coordinates": [ 114.1674406, 22.3207049 ] } },
{ "type": "Feature", "properties": { "fid": 5, "full_id": "n4695528892", "osm_id": "4695528892", "osm_type": "node", "amenity": "toilets", "toilets:handwashing": null, "male": null, "female": null, "check_date": null, "level": null, "wheelchair": null, "toilets:disposal": null, "operator": null, "access": null, "portable": null, "opening_hours": null, "name:zh": null, "name:en": null, "name": null, "fee": null }, "geometry": { "type": "Point", "coordinates": [ 114.1736992, 22.3255335 ] } },
{ "type": "Feature", "properties": { "fid": 6, "full_id": "n5370133817", "osm_id": "5370133817", "osm_type": "node", "amenity": "toilets", "toilets:handwashing": null, "male": null, "female": null, "check_date": null, "level": "0", "wheelchair": null, "toilets:disposal": "flush", "operator": null, "access": "yes", "portable": null, "opening_hours": null, "name:zh": null, "name:en": null, "name": null, "fee": "no" }, "geometry": { "type": "Point", "coordinates": [ 114.1759528, 22.3184897 ] } },
{ "type": "Feature", "properties": { "fid": 7, "full_id": "n12192805037", "osm_id": "12192805037", "osm_type": "node", "amenity": "toilets", "toilets:handwashing": null, "male": null, "female": null, "check_date": null, "level": null, "wheelchair": null, "toilets:disposal": null, "operator": null, "access": null, "portable": null, "opening_hours": null, "name:zh": null, "name:en": null, "name": null, "fee": null }, "geometry": { "type": "Point", "coordinates": [ 114.1742946, 22.3235802 ] } },
{ "type": "Feature", "properties": { "fid": 8, "full_id": "n12192805038", "osm_id": "12192805038", "osm_type": "node", "amenity": "toilets", "toilets:handwashing": null, "male": null, "female": null, "check_date": null, "level": null, "wheelchair": null, "toilets:disposal": null, "operator": null, "access": null, "portable": null, "opening_hours": null, "name:zh": null, "name:en": null, "name": null, "fee": null }, "geometry": { "type": "Point", "coordinates": [ 114.1749353, 22.3234456 ] } },
{ "type": "Feature", "properties": { "fid": 9, "full_id": "n12192805042", "osm_id": "12192805042", "osm_type": "node", "amenity": "toilets", "toilets:handwashing": null, "male": null, "female": null, "check_date": null, "level": null, "wheelchair": null, "toilets:disposal": null, "operator": null, "access": null, "portable": null, "opening_hours": null, "name:zh": null, "name:en": null, "name": null, "fee": null }, "geometry": { "type": "Point", "coordinates": [ 114.173274, 22.3234631 ] } },
{ "type": "Feature", "properties": { "fid": 10, "full_id": "n12192805043", "osm_id": "12192805043", "osm_type": "node", "amenity": "toilets", "toilets:handwashing": null, "male": null, "female": null, "check_date": null, "level": null, "wheelchair": null, "toilets:disposal": null, "operator": null, "access": null, "portable": null, "opening_hours": null, "name:zh": null, "name:en": null, "name": null, "fee": null }, "geometry": { "type": "Point", "coordinates": [ 114.1734998, 22.3230422 ] } },
{ "type": "Feature", "properties": { "fid": 11, "full_id": "n12579092691", "osm_id": "12579092691", "osm_type": "node", "amenity": "toilets", "toilets:handwashing": null, "male": null, "female": null, "check_date": null, "level": null, "wheelchair": null, "toilets:disposal": null, "operator": null, "access": null, "portable": null, "opening_hours": null, "name:zh": null, "name:en": null, "name": null, "fee": null }, "geometry": { "type": "Point", "coordinates": [ 114.1627296, 22.3246215 ] } },
{ "type": "Feature", "properties": { "fid": 12, "full_id": "n13338016261", "osm_id": "13338016261", "osm_type": "node", "amenity": "toilets", "toilets:handwashing": "yes", "male": "yes", "female": "yes", "check_date": "2025-11-28", "level": null, "wheelchair": "limited", "toilets:disposal": "flush", "operator": null, "access": null, "portable": "no", "opening_hours": null, "name:zh": null, "name:en": null, "name": null, "fee": "no" }, "geometry": { "type": "Point", "coordinates": [ 114.1647254, 22.3199752 ] } }
]
}
