{
"type": "FeatureCollection",
"name": "worship_kowloon",
"crs": { "type": "name", "properties": { "name": "urn:ogc:def:crs:OGC:1.3:CRS84" } },
"features": [
{ "type": "Feature", "properties": { "fid": 1, "full_id": "n1394375858", "osm_id": "1394375858", "osm_type": "node", "religion": "christian", "wheelchair": null, "vehicle": null, "locked": null, "books": null, "addr:street:zh": null, "addr:street:en": null, "shop": null, "phone": null, "operator:zh": null, "operator:wikidata": null, "operator:en": null, "operation": null, "network:area": null, "name:etymology:zh": null, "name:etymology:en": null, "name:etymology": null, "level:ref": null, "fax": null, "email": null, "designation:zh": null, "designation:wikidata": null, "designation:en": null, "contact:phone": null, "contact:fax": null, "contact:email": null, "community_centre:for": null, "brand:zh": null, "brand:en": null, "brand": null, "branch:zh": null, "branch:en": null, "branch": null, "addr:full:en": null, "addr:full": null, "door": null, "access": null, "gate:material": null, "website": null, "operator:type": null, "operator": null, "addr:level": null, "name:yue": null, "contact:facebook": null, "community_centre": null, "disused:amenity": null, "designation": null, "level": null, "denomination": null, "addr:unit": null, "addr:street": null, "addr:housenumber": null, "addr:floor": null, "addr:door": null, "tower:type": null, "man_made": null, "entrance": null, "barrier": null, "name:zh": "聖家彌撒中心", "name:en": "Holy Family Mass Centre", "name": "聖家彌撒中心 Holy Family Mass Centre", "amenity": "place_of_worship" }, "geometry": { "type": "Point", "coordinates": [ 114.2072004, 22.3354085 ] } },
{ "type": "Feature", "properties": { "fid": 2, "full_id": "n1394379606", "osm_id": "1394379606", "osm_type": "node", "religion": "christian", "wheelchair": null, "vehicle": null, "locked": null, "books": null, "addr:street:zh": null, "addr:street:en": null, "shop": null, "phone": null, "operator:zh": null, "operator:wikidata": null, "operator:en": null, "operation": null, "network:area": null, "name:etymology:zh": null, "name:etymology:en": null, "name:etymology": null, "level:ref": null, "fax": null, "email": null, "designation:zh": null, "designation:wikidata": null, "designation:en": null, "contact:phone": null, "contact:fax": null, "contact:email": null, "community_centre:for": null, "brand:zh": null, "brand:en": null, "brand": null, "branch:zh": null, "branch:en": null, "branch": null, "addr:full:en": null, "addr:full": null, "door": null, "access": null, "gate:material": null, "website": null, "operator:type": null, "operator": null, "addr:level": null, "name:yue": null, "contact:facebook": null, "community_centre": null, "disused:amenity": null, "designation": null, "level": null, "denomination": null, "addr:unit": null, "addr:street": null, "addr:housenumber": null, "addr:floor": null, "addr:door": null, "tower:type": null, "man_made": null, "entrance": null, "barrier": null, "name:zh": "中華基督教會嶺東堂", "name:en": "The Church of Christ in China Ling Tung Church", "name": "中華基督教會嶺東堂 The Church of Christ in China Ling Tung Church", "amenity": "place_of_worship" }, "geometry": { "type": "Point", "coordinates": [ 114.206704, 22.3359329 ] } },
{ "type": "Feature", "properties": { "fid": 3, "full_id": "n1955056226", "osm_id": "1955056226", "osm_type": "node", "religion": "christian", "wheelchair": null, "vehicle": null, "locked": null, "books": null, "addr:street:zh": null, "addr:street:en": null, "shop": null, "phone": null, "operator:zh": null, "operator:wikidata": null, "operator:en": null, "operation": null, "network:area": null, "name:etymology:zh": null, "name:etymology:en": null, "name:etymology": null, "level:ref": null, "fax": null, "email": null, "designation:zh": null, "designation:wikidata": null, "designation:en": null, "contact:phone": null, "contact:fax": null, "contact:email": null, "community_centre:for": null, "brand:zh": null, "brand:en": null, "brand": null, "branch:zh": null, "branch:en": null, "branch": null, "addr:full:en": null, "addr:full": null, "door": null, "access": null, "gate:material": null, "website": null, "operator:type": null, "operator": null, "addr:level": null, "name:yue": null, "contact:facebook": null, "community_centre": null, "disused:amenity": null, "designation": null, "level": null, "denomination": null, "addr:unit": null, "addr:street": null, "addr:housenumber": null, "addr:floor": null, "addr:door": null, "tower:type": null, "man_made": null, "entrance": null, "barrier": null, "name:zh": "香港九龍塘基督教中華宣道會國際堂", "name:en": "Kowloon Tong Church of the Chinese Christian and Missionary Alliance Alliance International Church", "name": "香港九龍塘基督教中華宣道會國際堂 Kowloon Tong Church of the Chinese Christian and Missionary Alliance Alliance International Church", "amenity": "place_of_worship" }, "geometry": { "type": "Point", "coordinates": [ 114.1908711, 22.303135 ] } },
{ "type": "Feature", "properties": { "fid": 4, "full_id": "n2265591214", "osm_id": "2265591214", "osm_type": "node", "religion": null, "wheelchair": null, "vehicle": null, "locked": null, "books": null, "addr:street:zh": null, "addr:street:en": null, "shop": null, "phone": null, "operator:zh": null, "operator:wikidata": null, "operator:en": null, "operation": null, "network:area": null, "name:etymology:zh": null, "name:etymology:en": null, "name:etymology": null, "level:ref": null, "fax": null, "email": null, "designation:zh": null, "designation:wikidata": null, "designation:en": null, "contact:phone": null, "contact:fax": null, "contact:email": null, "community_centre:for": null, "brand:zh": null, "brand:en": null, "brand": null, "branch:zh": null, "branch:en": null, "branch": null, "addr:full:en": null, "addr:full": null, "door": null, "access": null, "gate:material": null, "website": null, "operator:type": null, "operator": null, "addr:level": null, "name:yue": null, "contact:facebook": null, "community_centre": null, "disused:amenity": null, "designation": null, "level": null, "denomination": null, "addr:unit": null, "addr:street": null, "addr:housenumber": null, "addr:floor": null, "addr:door": null, "tower:type": null, "man_made": null, "entrance": null, "barrier": "gate", "name:zh": null, "name:en": null, "name": null, "amenity": null }, "geometry": { "type": "Point", "coordinates": [ 114.1486121, 22.3333447 ] } },
{ "type": "Feature", "properties": { "fid": 5, "full_id": "n2346875041", "osm_id": "2346875041", "osm_type": "node", "religion": null, "wheelchair": null, "vehicle": null, "locked": null, "books": null, "addr:street:zh": null, "addr:street:en": null, "shop": null, "phone": null, "operator:zh": null, "operator:wikidata": null, "operator:en": null, "operation": null, "network:area": null, "name:etymology:zh": null, "name:etymology:en": null, "name:etymology": null, "level:ref": null, "fax": null, "email": null, "designation:zh": null, "designation:wikidata": null, "designation:en": null, "contact:phone": null, "contact:fax": null, "contact:email": null, "community_centre:for": null, "brand:zh": null, "brand:en": null, "brand": null, "branch:zh": null, "branch:en": null, "branch": null, "addr:full:en": null, "addr:full": null, "door": null, "access": null, "gate:material": null, "website": null, "operator:type": null, "operator": null, "addr:level": null, "name:yue": null, "contact:facebook": null, "community_centre": null, "disused:amenity": null, "designation": null, "level": null, "denomination": null, "addr:unit": null, "addr:street": null, "addr:housenumber": null, "addr:floor": null, "addr:door": null, "tower:type": null, "man_made": null, "entrance": "main", "barrier": null, "name:zh": null, "name:en": null, "name": null, "amenity": null }, "geometry": { "type": "Point", "coordinates": [ 114.1735527, 22.3153429 ] } },
{ "type": "Feature", "properties": { "fid": 6, "full_id": "n2405220355", "osm_id": "2405220355", "osm_type": "node", "religion": null, "wheelchair": null, "vehicle": null, "locked": null, "books": null, "addr:street:zh": null, "addr:street:en": null, "shop": null, "phone": null, "operator:zh": null, "operator:wikidata": null, "operator:en": null, "operation": null, "network:area": null, "name:etymology:zh": null, "name:etymology:en": null, "name:etymology": null, "level:ref": null, "fax": null, "email": null, "designation:zh": null, "designation:wikidata": null, "designation:en": null, "contact:phone": null, "contact:fax": null, "contact:email": null, "community_centre:for": null, "brand:zh": null, "brand:en": null, "brand": null, "branch:zh": null, "branch:en": null, "branch": null, "addr:full:en": null, "addr:full": null, "door": null, "access": null, "gate:material": null, "website": null, "operator:type": null, "operator": null, "addr:level": null, "name:yue": null, "contact:facebook": null, "community_centre": null, "disused:amenity": null, "designation": null, "level": null, "denomination": null, "addr:unit": null, "addr:street": null, "addr:housenumber": null, "addr:floor": null, "addr:door": null, "tower:type": "defensive", "man_made": "tower", "entrance": null, "barrier": null, "name:zh": null, "name:en": null, "name": null, "amenity": null }, "geometry": { "type": "Point", "coordinates": [ 114.1964415, 22.3397997 ] } },
{ "type": "Feature", "properties": { "fid": 7, "full_id": "n2935557574", "osm_id": "2935557574", "osm_type": "node", "religion": "christian", "wheelchair": null, "vehicle": null, "locked": null, "books": null, "addr:street:zh": null, "addr:street:en": null, "shop": null, "phone": null, "operator:zh": null, "operator:wikidata": null, "operator:en": null, "operation": null, "network:area": null, "name:etymology:zh": null, "name:etymology:en": null, "name:etymology": null, "level:ref": null, "fax": null, "email": null, "designation:zh": null, "designation:wikidata": null, "designation:en": null, "contact:phone": null, "contact:fax": null, "contact:email": null, "community_centre:for": null, "brand:zh": null, "brand:en": null, "brand": null, "branch:zh": null, "branch:en": null, "branch": null, "addr:full:en": null, "addr:full": null, "door": null, "access": null, "gate:material": null, "website": null, "operator:type": null, "operator": null, "addr:level": null, "name:yue": null, "contact:facebook": null, "community_centre": null, "disused:amenity": null, "designation": null, "level": "4", "denomination": "evangelical", "addr:unit": "E", "addr:street": "彌敦道 Nathan Road", "addr:housenumber": "36-44", "addr:floor": "4/F", "addr:door": "4E2", "tower:type": null, "man_made": null, "entrance": null, "barrier": null, "name:zh": null, "name:en": null, "name": "Chung King Ministry", "amenity": "place_of_worship" }, "geometry": { "type": "Point", "coordinates": [ 114.1732198, 22.2961846 ] } },
{ "type": "Feature", "properties": { "fid": 8, "full_id": "n3999259977", "osm_id": "3999259977", "osm_type": "node", "religion": "christian", "wheelchair": null, "vehicle": null, "locked": null, "books": null, "addr:street:zh": null, "addr:street:en": null, "shop": null, "phone": null, "operator:zh": null, "operator:wikidata": null, "operator:en": null, "operation": null, "network:area": null, "name:etymology:zh": null, "name:etymology:en": null, "name:etymology": null, "level:ref": null, "fax": null, "email": null, "designation:zh": null, "designation:wikidata": null, "designation:en": null, "contact:phone": null, "contact:fax": null, "contact:email": null, "community_centre:for": null, "brand:zh": null, "brand:en": null, "brand": null, "branch:zh": null, "branch:en": null, "branch": null, "addr:full:en": null, "addr:full": null, "door": null, "access": null, "gate:material": null, "website": null, "operator:type": null, "operator": null, "addr:level": null, "name:yue": null, "contact:facebook": null, "community_centre": null, "disused:amenity": null, "designation": "Catholic Parish", "level": null, "denomination": "catholic", "addr:unit": null, "addr:street": null, "addr:housenumber": null, "addr:floor": null, "addr:door": null, "tower:type": null, "man_made": null, "entrance": null, "barrier": null, "name:zh": "進教之佑堂區-進教之佑堂", "name:en": "Mary Help of Christians Parish-Mary Help of Christians Church", "name": "進教之佑堂區-進教之佑堂 Mary Help of Christians Parish-Mary Help of Christians Church", "amenity": "place_of_worship" }, "geometry": { "type": "Point", "coordinates": [ 114.1847474, 22.3210499 ] } },
{ "type": "Feature", "properties": { "fid": 9, "full_id": "n4783147479", "osm_id": "4783147479", "osm_type": "node", "religion": "taoist", "wheelchair": null, "vehicle": null, "locked": null, "books": null, "addr:street:zh": null, "addr:street:en": null, "shop": null, "phone": null, "operator:zh": null, "operator:wikidata": null, "operator:en": null, "operation": null, "network:area": null, "name:etymology:zh": null, "name:etymology:en": null, "name:etymology": null, "level:ref": null, "fax": null, "email": null, "designation:zh": null, "designation:wikidata": null, "designation:en": null, "contact:phone": null, "contact:fax": null, "contact:email": null, "community_centre:for": null, "brand:zh": null, "brand:en": null, "brand": null, "branch:zh": null, "branch:en": null, "branch": null, "addr:full:en": null, "addr:full": null, "door": null, "access": null, "gate:material": null, "website": null, "operator:type": null, "operator": null, "addr:level": null, "name:yue": null, "contact:facebook": null, "community_centre": null, "disused:amenity": null, "designation": null, "level": null, "denomination": null, "addr:unit": null, "addr:street": null, "addr:housenumber": null, "addr:floor": null, "addr:door": null, "tower:type": null, "man_made": null, "entrance": null, "barrier": null, "name:zh": null, "name:en": null, "name": "福德古廟", "amenity": "place_of_worship" }, "geometry": { "type": "Point", "coordinates": [ 114.1869113, 22.3060727 ] } },
{ "type": "Feature", "properties": { "fid": 10, "full_id": "n4862129544", "osm_id": "4862129544", "osm_type": "node", "religion": "christian", "wheelchair": null, "vehicle": null, "locked": null, "books": null, "addr:street:zh": null, "addr:street:en": null, "shop": null, "phone": null, "operator:zh": null, "operator:wikidata": null, "operator:en": null, "operation": null, "network:area": null, "name:etymology:zh": null, "name:etymology:en": null, "name:etymology": null, "level:ref": null, "fax": null, "email": null, "designation:zh": null, "designation:wikidata": null, "designation:en": null, "contact:phone": null, "contact:fax": null, "contact:email": null, "community_centre:for": null, "brand:zh": null, "brand:en": null, "brand": null, "branch:zh": null, "branch:en": null, "branch": null, "addr:full:en": null, "addr:full": null, "door": null, "access": null, "gate:material": null, "website": null, "operator:type": null, "operator": null, "addr:level": null, "name:yue": null, "contact:facebook": null, "community_centre": null, "disused:amenity": "place_of_worship", "designation": null, "level": null, "denomination": "lutheran", "addr:unit": null, "addr:street": "大埔道 Tai Po Road", "addr:housenumber": null, "addr:floor": null, "addr:door": null, "tower:type": null, "man_made": null, "entrance": null, "barrier": null, "name:zh": null, "name:en": null, "name": "Amazing Grace Lutheran Church", "amenity": null }, "geometry": { "type": "Point", "coordinates": [ 114.1661588, 22.3302539 ] } },
{ "type": "Feature", "properties": { "fid": 11, "full_id": "n4862303199", "osm_id": "4862303199", "osm_type": "node", "religion": "christian", "wheelchair": null, "vehicle": null, "locked": null, "books": null, "addr:street:zh": null, "addr:street:en": null, "shop": null, "phone": null, "operator:zh": null, "operator:wikidata": null, "operator:en": null, "operation": null, "network:area": null, "name:etymology:zh": null, "name:etymology:en": null, "name:etymology": null, "level:ref": null, "fax": null, "email": null, "designation:zh": null, "designation:wikidata": null, "designation:en": null, "contact:phone": null, "contact:fax": null, "contact:email": null, "community_centre:for": null, "brand:zh": null, "brand:en": null, "brand": null, "branch:zh": null, "branch:en": null, "branch": null, "addr:full:en": null, "addr:full": null, "door": null, "access": null, "gate:material": null, "website": null, "operator:type": null, "operator": null, "addr:level": null, "name:yue": null, "contact:facebook": null, "community_centre": null, "disused:amenity": null, "designation": null, "level": null, "denomination": null, "addr:unit": null, "addr:street": "海泓道 Hoi Wang Road", "addr:housenumber": null, "addr:floor": null, "addr:door": null, "tower:type": null, "man_made": null, "entrance": null, "barrier": null, "name:zh": null, "name:en": "True Leave Church", "name": "True Leave Church", "amenity": "place_of_worship" }, "geometry": { "type": "Point", "coordinates": [ 114.1647837, 22.3131433 ] } },
{ "type": "Feature", "properties": { "fid": 12, "full_id": "n4862694325", "osm_id": "4862694325", "osm_type": "node", "religion": "christian", "wheelchair": null, "vehicle": null, "locked": null, "books": null, "addr:street:zh": null, "addr:street:en": null, "shop": null, "phone": null, "operator:zh": null, "operator:wikidata": null, "operator:en": null, "operation": null, "network:area": null, "name:etymology:zh": null, "name:etymology:en": null, "name:etymology": null, "level:ref": null, "fax": null, "email": null, "designation:zh": null, "designation:wikidata": null, "designation:en": null, "contact:phone": null, "contact:fax": null, "contact:email": null, "community_centre:for": null, "brand:zh": null, "brand:en": null, "brand": null, "branch:zh": null, "branch:en": null, "branch": null, "addr:full:en": null, "addr:full": null, "door": null, "access": null, "gate:material": null, "website": null, "operator:type": null, "operator": null, "addr:level": null, "name:yue": null, "contact:facebook": "https://www.facebook.com/190990134300500/", "community_centre": "church_hall", "disused:amenity": null, "designation": null, "level": "3", "denomination": "baptist", "addr:unit": null, "addr:street": "欽州街 Yen Chow Street", "addr:housenumber": "65-71", "addr:floor": null, "addr:door": null, "tower:type": null, "man_made": null, "entrance": null, "barrier": null, "name:zh": "興田浸信會", "name:en": "Hing Tin Baptist Church", "name": "興田浸信會 Hing Tin Baptist Church", "amenity": "place_of_worship" }, "geometry": { "type": "Point", "coordinates": [ 114.16181, 22.3329369 ] } },
{ "type": "Feature", "properties": { "fid": 13, "full_id": "n5507224221", "osm_id": "5507224221", "osm_type": "node", "religion": "chinese_folk", "wheelchair": null, "vehicle": null, "locked": null, "books": null, "addr:street:zh": null, "addr:street:en": null, "shop": null, "phone": null, "operator:zh": null, "operator:wikidata": null, "operator:en": null, "operation": null, "network:area": null, "name:etymology:zh": null, "name:etymology:en": null, "name:etymology": null, "level:ref": null, "fax": null, "email": null, "designation:zh": null, "designation:wikidata": null, "designation:en": null, "contact:phone": null, "contact:fax": null, "contact:email": null, "community_centre:for": null, "brand:zh": null, "brand:en": null, "brand": null, "branch:zh": null, "branch:en": null, "branch": null, "addr:full:en": null, "addr:full": null, "door": null, "access": null, "gate:material": null, "website": null, "operator:type": null, "operator": null, "addr:level": null, "name:yue": "天后廟", "contact:facebook": null, "community_centre": null, "disused:amenity": null, "designation": null, "level": null, "denomination": null, "addr:unit": null, "addr:street": null, "addr:housenumber": null, "addr:floor": null, "addr:door": null, "tower:type": null, "man_made": null, "entrance": null, "barrier": null, "name:zh": "天后廟", "name:en": "Tin Hau Temple", "name": "Yau Ma Tei Tin Hau Temple", "amenity": "place_of_worship" }, "geometry": { "type": "Point", "coordinates": [ 114.1706942, 22.3099136 ] } },
{ "type": "Feature", "properties": { "fid": 14, "full_id": "n5544539621", "osm_id": "5544539621", "osm_type": "node", "religion": "taoist", "wheelchair": null, "vehicle": null, "locked": null, "books": null, "addr:street:zh": null, "addr:street:en": null, "shop": null, "phone": null, "operator:zh": null, "operator:wikidata": null, "operator:en": null, "operation": null, "network:area": null, "name:etymology:zh": null, "name:etymology:en": null, "name:etymology": null, "level:ref": null, "fax": null, "email": null, "designation:zh": null, "designation:wikidata": null, "designation:en": null, "contact:phone": null, "contact:fax": null, "contact:email": null, "community_centre:for": null, "brand:zh": null, "brand:en": null, "brand": null, "branch:zh": null, "branch:en": null, "branch": null, "addr:full:en": null, "addr:full": null, "door": null, "access": null, "gate:material": null, "website": null, "operator:type": null, "operator": null, "addr:level": null, "name:yue": null, "contact:facebook": null, "community_centre": null, "disused:amenity": null, "designation": null, "level": null, "denomination": null, "addr:unit": null, "addr:street": "大南街 Tai Nan Street", "addr:housenumber": "160-164", "addr:floor": null, "addr:door": null, "tower:type": null, "man_made": null, "entrance": null, "barrier": null, "name:zh": null, "name:en": null, "name": "大南街觀", "amenity": "place_of_worship" }, "geometry": { "type": "Point", "coordinates": [ 114.1641298, 22.3266781 ] } },
{ "type": "Feature", "properties": { "fid": 15, "full_id": "n6583126412", "osm_id": "6583126412", "osm_type": "node", "religion": "christian", "wheelchair": null, "vehicle": null, "locked": null, "books": null, "addr:street:zh": null, "addr:street:en": null, "shop": null, "phone": null, "operator:zh": null, "operator:wikidata": null, "operator:en": null, "operation": null, "network:area": null, "name:etymology:zh": null, "name:etymology:en": null, "name:etymology": null, "level:ref": null, "fax": null, "email": null, "designation:zh": null, "designation:wikidata": null, "designation:en": null, "contact:phone": null, "contact:fax": null, "contact:email": null, "community_centre:for": null, "brand:zh": null, "brand:en": null, "brand": null, "branch:zh": null, "branch:en": null, "branch": null, "addr:full:en": null, "addr:full": null, "door": null, "access": null, "gate:material": null, "website": "http://www.pca.edu.hk", "operator:type": "Community_College", "operator": "Baptist Convention of Hong Kong", "addr:level": "2", "name:yue": null, "contact:facebook": null, "community_centre": null, "disused:amenity": null, "designation": null, "level": null, "denomination": "baptist", "addr:unit": null, "addr:street": "柯士甸道 Austin Road", "addr:housenumber": "33-39", "addr:floor": null, "addr:door": null, "tower:type": null, "man_made": null, "entrance": null, "barrier": null, "name:zh": "培正專業書院", "name:en": null, "name": "Pui Ching Academy", "amenity": "school" }, "geometry": { "type": "Point", "coordinates": [ 114.1696331, 22.303259 ] } },
{ "type": "Feature", "properties": { "fid": 16, "full_id": "n6769337801", "osm_id": "6769337801", "osm_type": "node", "religion": null, "wheelchair": null, "vehicle": null, "locked": null, "books": null, "addr:street:zh": null, "addr:street:en": null, "shop": null, "phone": null, "operator:zh": null, "operator:wikidata": null, "operator:en": null, "operation": null, "network:area": null, "name:etymology:zh": null, "name:etymology:en": null, "name:etymology": null, "level:ref": null, "fax": null, "email": null, "designation:zh": null, "designation:wikidata": null, "designation:en": null, "contact:phone": null, "contact:fax": null, "contact:email": null, "community_centre:for": null, "brand:zh": null, "brand:en": null, "brand": null, "branch:zh": null, "branch:en": null, "branch": null, "addr:full:en": null, "addr:full": null, "door": null, "access": null, "gate:material": null, "website": null, "operator:type": null, "operator": null, "addr:level": null, "name:yue": null, "contact:facebook": null, "community_centre": null, "disused:amenity": null, "designation": null, "level": null, "denomination": null, "addr:unit": null, "addr:street": null, "addr:housenumber": null, "addr:floor": null, "addr:door": null, "tower:type": null, "man_made": null, "entrance": null, "barrier": "gate", "name:zh": null, "name:en": null, "name": null, "amenity": null }, "geometry": { "type": "Point", "coordinates": [ 114.1631795, 22.3342893 ] } },
{ "type": "Feature", "properties": { "fid": 17, "full_id": "n6816635552", "osm_id": "6816635552", "osm_type": "node", "religion": null, "wheelchair": null, "vehicle": null, "locked": null, "books": null, "addr:street:zh": null, "addr:street:en": null, "shop": null, "phone": null, "operator:zh": null, "operator:wikidata": null, "operator:en": null, "operation": null, "network:area": null, "name:etymology:zh": null, "name:etymology:en": null, "name:etymology": null, "level:ref": null, "fax": null, "email": null, "designation:zh": null, "designation:wikidata": null, "designation:en": null, "contact:phone": null, "contact:fax": null, "contact:email": null, "community_centre:for": null, "brand:zh": null, "brand:en": null, "brand": null, "branch:zh": null, "branch:en": null, "branch": null, "addr:full:en": null, "addr:full": null, "door": null, "access": null, "gate:material": null, "website": null, "operator:type": null, "operator": null, "addr:level": null, "name:yue": null, "contact:facebook": null, "community_centre": null, "disused:amenity": null, "designation": null, "level": null, "denomination": null, "addr:unit": null, "addr:street": null, "addr:housenumber": null, "addr:floor": null, "addr:door": null, "tower:type": null, "man_made": null, "entrance": null, "barrier": "gate", "name:zh": null, "name:en": null, "name": null, "amenity": null }, "geometry": { "type": "Point", "coordinates": [ 114.19642, 22.3397996 ] } },
{ "type": "Feature", "properties": { "fid": 18, "full_id": "n6816635553", "osm_id": "6816635553", "osm_type": "node", "religion": null, "wheelchair": null, "vehicle": null, "locked": null, "books": null, "addr:street:zh": null, "addr:street:en": null, "shop": null, "phone": null, "operator:zh": null, "operator:wikidata": null, "operator:en": null, "operation": null, "network:area": null, "name:etymology:zh": null, "name:etymology:en": null, "name:etymology": null, "level:ref": null, "fax": null, "email": null, "designation:zh": null, "designation:wikidata": null, "designation:en": null, "contact:phone": null, "contact:fax": null, "contact:email": null, "community_centre:for": null, "brand:zh": null, "brand:en": null, "brand": null, "branch:zh": null, "branch:en": null, "branch": null, "addr:full:en": null, "addr:full": null, "door": null, "access": null, "gate:material": null, "website": null, "operator:type": null, "operator": null, "addr:level": null, "name:yue": null, "contact:facebook": null, "community_centre": null, "disused:amenity": null, "designation": null, "level": null, "denomination": null, "addr:unit": null, "addr:street": null, "addr:housenumber": null, "addr:floor": null, "addr:door": null, "tower:type": null, "man_made": null, "entrance": null, "barrier": "gate", "name:zh": null, "name:en": null, "name": null, "amenity": null }, "geometry": { "type": "Point", "coordinates": [ 114.1960225, 22.3394112 ] } },
{ "type": "Feature", "properties": { "fid": 19, "full_id": "n6816635559", "osm_id": "6816635559", "osm_type": "node", "religion": null, "wheelchair": null, "vehicle": null, "locked": null, "books": null, "addr:street:zh": null, "addr:street:en": null, "shop": null, "phone": null, "operator:zh": null, "operator:wikidata": null, "operator:en": null, "operation": null, "network:area": null, "name:etymology:zh": null, "name:etymology:en": null, "name:etymology": null, "level:ref": null, "fax": null, "email": null, "designation:zh": null, "designation:wikidata": null, "designation:en": null, "contact:phone": null, "contact:fax": null, "contact:email": null, "community_centre:for": null, "brand:zh": null, "brand:en": null, "brand": null, "branch:zh": null, "branch:en": null, "branch": null, "addr:full:en": null, "addr:full": null, "door": null, "access": null, "gate:material": null, "website": null, "operator:type": null, "operator": null, "addr:level": null, "name:yue": null, "contact:facebook": null, "community_centre": null, "disused:amenity": null, "designation": null, "level": null, "denomination": null, "addr:unit": null, "addr:street": null, "addr:housenumber": null, "addr:floor": null, "addr:door": null, "tower:type": null, "man_made": null, "entrance": null, "barrier": "gate", "name:zh": null, "name:en": null, "name": null, "amenity": null }, "geometry": { "type": "Point", "coordinates": [ 114.1960174, 22.3395689 ] } },
{ "type": "Feature", "properties": { "fid": 20, "full_id": "n6816635560", "osm_id": "6816635560", "osm_type": "node", "religion": null, "wheelchair": null, "vehicle": null, "locked": null, "books": null, "addr:street:zh": null, "addr:street:en": null, "shop": null, "phone": null, "operator:zh": null, "operator:wikidata": null, "operator:en": null, "operation": null, "network:area": null, "name:etymology:zh": null, "name:etymology:en": null, "name:etymology": null, "level:ref": null, "fax": null, "email": null, "designation:zh": null, "designation:wikidata": null, "designation:en": null, "contact:phone": null, "contact:fax": null, "contact:email": null, "community_centre:for": null, "brand:zh": null, "brand:en": null, "brand": null, "branch:zh": null, "branch:en": null, "branch": null, "addr:full:en": null, "addr:full": null, "door": null, "access": null, "gate:material": null, "website": null, "operator:type": null, "operator": null, "addr:level": null, "name:yue": null, "contact:facebook": null, "community_centre": null, "disused:amenity": null, "designation": null, "level": null, "denomination": null, "addr:unit": null, "addr:street": null, "addr:housenumber": null, "addr:floor": null, "addr:door": null, "tower:type": null, "man_made": null, "entrance": null, "barrier": "gate", "name:zh": null, "name:en": null, "name": null, "amenity": null }, "geometry": { "type": "Point", "coordinates": [ 114.1962118, 22.3397932 ] } },
{ "type": "Feature", "properties": { "fid": 21, "full_id": "n6898305857", "osm_id": "6898305857", "osm_type": "node", "religion": null, "wheelchair": null, "vehicle": null, "locked": null, "books": null, "addr:street:zh": null, "addr:street:en": null, "shop": null, "phone": null, "operator:zh": null, "operator:wikidata": null, "operator:en": null, "operation": null, "network:area": null, "name:etymology:zh": null, "name:etymology:en": null, "name:etymology": null, "level:ref": null, "fax": null, "email": null, "designation:zh": null, "designation:wikidata": null, "designation:en": null, "contact:phone": null, "contact:fax": null, "contact:email": null, "community_centre:for": null, "brand:zh": null, "brand:en": null, "brand": null, "branch:zh": null, "branch:en": null, "branch": null, "addr:full:en": null, "addr:full": null, "door": null, "access": null, "gate:material": "metal", "website": null, "operator:type": null, "operator": null, "addr:level": null, "name:yue": null, "contact:facebook": null, "community_centre": null, "disused:amenity": null, "designation": null, "level": null, "denomination": null, "addr:unit": null, "addr:street": null, "addr:housenumber": null, "addr:floor": null, "addr:door": null, "tower:type": null, "man_made": null, "entrance": "yes", "barrier": "gate", "name:zh": null, "name:en": null, "name": null, "amenity": null }, "geometry": { "type": "Point", "coordinates": [ 114.1456661, 22.33409 ] } },
{ "type": "Feature", "properties": { "fid": 22, "full_id": "n7837166500", "osm_id": "7837166500", "osm_type": "node", "religion": null, "wheelchair": null, "vehicle": null, "locked": null, "books": null, "addr:street:zh": null, "addr:street:en": null, "shop": null, "phone": null, "operator:zh": null, "operator:wikidata": null, "operator:en": null, "operation": null, "network:area": null, "name:etymology:zh": null, "name:etymology:en": null, "name:etymology": null, "level:ref": null, "fax": null, "email": null, "designation:zh": null, "designation:wikidata": null, "designation:en": null, "contact:phone": null, "contact:fax": null, "contact:email": null, "community_centre:for": null, "brand:zh": null, "brand:en": null, "brand": null, "branch:zh": null, "branch:en": null, "branch": null, "addr:full:en": null, "addr:full": null, "door": "yes", "access": "private", "gate:material": null, "website": null, "operator:type": null, "operator": null, "addr:level": null, "name:yue": null, "contact:facebook": null, "community_centre": null, "disused:amenity": null, "designation": null, "level": null, "denomination": null, "addr:unit": null, "addr:street": null, "addr:housenumber": null, "addr:floor": null, "addr:door": null, "tower:type": null, "man_made": null, "entrance": "yes", "barrier": null, "name:zh": null, "name:en": null, "name": null, "amenity": null }, "geometry": { "type": "Point", "coordinates": [ 114.1630508, 22.3345268 ] } },
{ "type": "Feature", "properties": { "fid": 23, "full_id": "n7837166568", "osm_id": "7837166568", "osm_type": "node", "religion": null, "wheelchair": null, "vehicle": null, "locked": null, "books": null, "addr:street:zh": null, "addr:street:en": null, "shop": null, "phone": null, "operator:zh": null, "operator:wikidata": null, "operator:en": null, "operation": null, "network:area": null, "name:etymology:zh": null, "name:etymology:en": null, "name:etymology": null, "level:ref": null, "fax": null, "email": null, "designation:zh": null, "designation:wikidata": null, "designation:en": null, "contact:phone": null, "contact:fax": null, "contact:email": null, "community_centre:for": null, "brand:zh": null, "brand:en": null, "brand": null, "branch:zh": null, "branch:en": null, "branch": null, "addr:full:en": null, "addr:full": null, "door": null, "access": null, "gate:material": null, "website": null, "operator:type": null, "operator": null, "addr:level": null, "name:yue": null, "contact:facebook": null, "community_centre": null, "disused:amenity": null, "designation": null, "level": null, "denomination": null, "addr:unit": null, "addr:street": null, "addr:housenumber": null, "addr:floor": null, "addr:door": null, "tower:type": null, "man_made": null, "entrance": null, "barrier": "yes", "name:zh": null, "name:en": null, "name": null, "amenity": null }, "geometry": { "type": "Point", "coordinates": [ 114.1632088, 22.3342971 ] } },
{ "type": "Feature", "properties": { "fid": 24, "full_id": "n8838625027", "osm_id": "8838625027", "osm_type": "node", "religion": "christian", "wheelchair": null, "vehicle": null, "locked": null, "books": null, "addr:street:zh": null, "addr:street:en": null, "shop": null, "phone": null, "operator:zh": null, "operator:wikidata": null, "operator:en": null, "operation": null, "network:area": null, "name:etymology:zh": null, "name:etymology:en": null, "name:etymology": null, "level:ref": null, "fax": null, "email": null, "designation:zh": null, "designation:wikidata": null, "designation:en": null, "contact:phone": null, "contact:fax": null, "contact:email": null, "community_centre:for": null, "brand:zh": null, "brand:en": null, "brand": null, "branch:zh": null, "branch:en": null, "branch": null, "addr:full:en": null, "addr:full": null, "door": null, "access": null, "gate:material": null, "website": null, "operator:type": null, "operator": null, "addr:level": null, "name:yue": null, "contact:facebook": null, "community_centre": null, "disused:amenity": null, "designation": null, "level": null, "denomination": "roman_catholic", "addr:unit": null, "addr:street": null, "addr:housenumber": null, "addr:floor": null, "addr:door": null, "tower:type": null, "man_made": null, "entrance": null, "barrier": null, "name:zh": null, "name:en": null, "name": "Small Chapel of La Salle College", "amenity": "place_of_worship" }, "geometry": { "type": "Point", "coordinates": [ 114.1821315, 22.3292656 ] } },
{ "type": "Feature", "properties": { "fid": 25, "full_id": "n9038433357", "osm_id": "9038433357", "osm_type": "node", "religion": "christian", "wheelchair": null, "vehicle": null, "locked": null, "books": null, "addr:street:zh": null, "addr:street:en": null, "shop": null, "phone": "+852 2729 1211", "operator:zh": "香港明愛", "operator:wikidata": "Q847749", "operator:en": "Caritas — Hong Kong", "operation": "public", "network:area": "district", "name:etymology:zh": "鄭承峰", "name:etymology:en": "Cheng Shing Fung", "name:etymology": "鄭承峰 Cheng Shing Fung", "level:ref": "UG", "fax": "+852 2958 0561", "email": "secswme@caritassws.org.hk", "designation:zh": "長者地區中心", "designation:wikidata": "Q15903924", "designation:en": "District Elderly Community Centre", "contact:phone": "+852 2729 1211", "contact:fax": "+852 2958 0561", "contact:email": "secswme@caritassws.org.hk", "community_centre:for": "senior", "brand:zh": "明愛", "brand:en": "Caritas", "brand": "明愛 Caritas", "branch:zh": "深水埗", "branch:en": "Sham Shui Po", "branch": "深水埗 Sham Shui Po", "addr:full:en": "UG/F, Lai Bo Garden, No. 383 Po On Road, Sham Shui Po, Kowloon", "addr:full": "UG/F, Lai Bo Garden, No. 383 Po On Road, Sham Shui Po, Kowloon", "door": null, "access": null, "gate:material": null, "website": null, "operator:type": null, "operator": "香港明愛 Caritas — Hong Kong", "addr:level": null, "name:yue": null, "contact:facebook": null, "community_centre": null, "disused:amenity": null, "designation": "長者地區中心 District Elderly Community Centre", "level": null, "denomination": "catholic", "addr:unit": null, "addr:street": null, "addr:housenumber": null, "addr:floor": null, "addr:door": null, "tower:type": null, "man_made": null, "entrance": null, "barrier": null, "name:zh": "明愛鄭承峰長者社區中心（深水埗）", "name:en": "Caritas Cheng Shing Fung District Elderly Centre (Sham Shui Po)", "name": "明愛鄭承峰長者社區中心（深水埗） Caritas Cheng Shing Fung District Elderly Centre (Sham Shui Po)", "amenity": "community_centre" }, "geometry": { "type": "Point", "coordinates": [ 114.1552335, 22.3402336 ] } },
{ "type": "Feature", "properties": { "fid": 26, "full_id": "n9483870340", "osm_id": "9483870340", "osm_type": "node", "religion": null, "wheelchair": null, "vehicle": null, "locked": null, "books": null, "addr:street:zh": null, "addr:street:en": null, "shop": null, "phone": null, "operator:zh": null, "operator:wikidata": null, "operator:en": null, "operation": null, "network:area": null, "name:etymology:zh": null, "name:etymology:en": null, "name:etymology": null, "level:ref": null, "fax": null, "email": null, "designation:zh": null, "designation:wikidata": null, "designation:en": null, "contact:phone": null, "contact:fax": null, "contact:email": null, "community_centre:for": null, "brand:zh": null, "brand:en": null, "brand": null, "branch:zh": null, "branch:en": null, "branch": null, "addr:full:en": null, "addr:full": null, "door": null, "access": null, "gate:material": null, "website": null, "operator:type": null, "operator": null, "addr:level": null, "name:yue": null, "contact:facebook": null, "community_centre": null, "disused:amenity": null, "designation": null, "level": null, "denomination": null, "addr:unit": null, "addr:street": null, "addr:housenumber": null, "addr:floor": null, "addr:door": null, "tower:type": null, "man_made": null, "entrance": null, "barrier": "gate", "name:zh": null, "name:en": null, "name": null, "amenity": null }, "geometry": { "type": "Point", "coordinates": [ 114.162485, 22.329255 ] } },
{ "type": "Feature", "properties": { "fid": 27, "full_id": "n9483870341", "osm_id": "9483870341", "osm_type": "node", "religion": null, "wheelchair": null, "vehicle": null, "locked": null, "books": null, "addr:street:zh": null, "addr:street:en": null, "shop": null, "phone": null, "operator:zh": null, "operator:wikidata": null, "operator:en": null, "operation": null, "network:area": null, "name:etymology:zh": null, "name:etymology:en": null, "name:etymology": null, "level:ref": null, "fax": null, "email": null, "designation:zh": null, "designation:wikidata": null, "designation:en": null, "contact:phone": null, "contact:fax": null, "contact:email": null, "community_centre:for": null, "brand:zh": null, "brand:en": null, "brand": null, "branch:zh": null, "branch:en": null, "branch": null, "addr:full:en": null, "addr:full": null, "door": null, "access": null, "gate:material": null, "website": null, "operator:type": null, "operator": null, "addr:level": null, "name:yue": null, "contact:facebook": null, "community_centre": null, "disused:amenity": null, "designation": null, "level": null, "denomination": null, "addr:unit": null, "addr:street": null, "addr:housenumber": null, "addr:floor": null, "addr:door": null, "tower:type": null, "man_made": null, "entrance": null, "barrier": "gate", "name:zh": null, "name:en": null, "name": null, "amenity": null }, "geometry": { "type": "Point", "coordinates": [ 114.1624219, 22.3293047 ] } },
{ "type": "Feature", "properties": { "fid": 28, "full_id": "n9789498007", "osm_id": "9789498007", "osm_type": "node", "religion": "christian", "wheelchair": null, "vehicle": null, "locked": null, "books": null, "addr:street:zh": null, "addr:street:en": null, "shop": null, "phone": null, "operator:zh": null, "operator:wikidata": null, "operator:en": null, "operation": null, "network:area": null, "name:etymology:zh": null, "name:etymology:en": null, "name:etymology": null, "level:ref": null, "fax": null, "email": null, "designation:zh": null, "designation:wikidata": null, "designation:en": null, "contact:phone": null, "contact:fax": null, "contact:email": null, "community_centre:for": null, "brand:zh": null, "brand:en": null, "brand": null, "branch:zh": null, "branch:en": null, "branch": null, "addr:full:en": null, "addr:full": null, "door": null, "access": null, "gate:material": null, "website": null, "operator:type": null, "operator": null, "addr:level": null, "name:yue": null, "contact:facebook": null, "community_centre": null, "disused:amenity": null, "designation": null, "level": null, "denomination": null, "addr:unit": null, "addr:street": "南角道 Nam Kok Road", "addr:housenumber": "19-23", "addr:floor": null, "addr:door": null, "tower:type": null, "man_made": null, "entrance": null, "barrier": null, "name:zh": "基督教樂道會九龍城堂", "name:en": "Lock Tao Christian Association Kowloon City Church", "name": "基督教樂道會九龍城堂 Lock Tao Christian Association Kowloon City Church", "amenity": "place_of_worship" }, "geometry": { "type": "Point", "coordinates": [ 114.1897445, 22.3285618 ] } },
{ "type": "Feature", "properties": { "fid": 29, "full_id": "n9960794971", "osm_id": "9960794971", "osm_type": "node", "religion": null, "wheelchair": null, "vehicle": null, "locked": null, "books": null, "addr:street:zh": null, "addr:street:en": null, "shop": null, "phone": null, "operator:zh": null, "operator:wikidata": null, "operator:en": null, "operation": null, "network:area": null, "name:etymology:zh": null, "name:etymology:en": null, "name:etymology": null, "level:ref": null, "fax": null, "email": null, "designation:zh": null, "designation:wikidata": null, "designation:en": null, "contact:phone": null, "contact:fax": null, "contact:email": null, "community_centre:for": null, "brand:zh": null, "brand:en": null, "brand": null, "branch:zh": null, "branch:en": null, "branch": null, "addr:full:en": null, "addr:full": null, "door": null, "access": null, "gate:material": null, "website": null, "operator:type": null, "operator": null, "addr:level": null, "name:yue": null, "contact:facebook": null, "community_centre": null, "disused:amenity": null, "designation": null, "level": null, "denomination": null, "addr:unit": null, "addr:street": null, "addr:housenumber": null, "addr:floor": null, "addr:door": null, "tower:type": null, "man_made": null, "entrance": null, "barrier": "gate", "name:zh": null, "name:en": null, "name": null, "amenity": null }, "geometry": { "type": "Point", "coordinates": [ 114.1719349, 22.2988983 ] } },
{ "type": "Feature", "properties": { "fid": 30, "full_id": "n10221694267", "osm_id": "10221694267", "osm_type": "node", "religion": "buddhist", "wheelchair": null, "vehicle": null, "locked": null, "books": null, "addr:street:zh": null, "addr:street:en": null, "shop": "religion", "phone": null, "operator:zh": null, "operator:wikidata": null, "operator:en": null, "operation": null, "network:area": null, "name:etymology:zh": null, "name:etymology:en": null, "name:etymology": null, "level:ref": null, "fax": null, "email": null, "designation:zh": null, "designation:wikidata": null, "designation:en": null, "contact:phone": null, "contact:fax": null, "contact:email": null, "community_centre:for": null, "brand:zh": null, "brand:en": null, "brand": null, "branch:zh": null, "branch:en": null, "branch": null, "addr:full:en": null, "addr:full": null, "door": null, "access": null, "gate:material": null, "website": null, "operator:type": null, "operator": null, "addr:level": null, "name:yue": null, "contact:facebook": null, "community_centre": null, "disused:amenity": null, "designation": null, "level": null, "denomination": null, "addr:unit": null, "addr:street": "界限街 Boundary Street", "addr:housenumber": "35", "addr:floor": null, "addr:door": null, "tower:type": null, "man_made": null, "entrance": null, "barrier": null, "name:zh": null, "name:en": null, "name": "泠峰泰佛店", "amenity": null }, "geometry": { "type": "Point", "coordinates": [ 114.1669603, 22.3265719 ] } },
{ "type": "Feature", "properties": { "fid": 31, "full_id": "n10256441387", "osm_id": "10256441387", "osm_type": "node", "religion": null, "wheelchair": null, "vehicle": null, "locked": null, "books": null, "addr:street:zh": null, "addr:street:en": null, "shop": null, "phone": null, "operator:zh": null, "operator:wikidata": null, "operator:en": null, "operation": null, "network:area": null, "name:etymology:zh": null, "name:etymology:en": null, "name:etymology": null, "level:ref": null, "fax": null, "email": null, "designation:zh": null, "designation:wikidata": null, "designation:en": null, "contact:phone": null, "contact:fax": null, "contact:email": null, "community_centre:for": null, "brand:zh": null, "brand:en": null, "brand": null, "branch:zh": null, "branch:en": null, "branch": null, "addr:full:en": null, "addr:full": null, "door": null, "access": null, "gate:material": null, "website": null, "operator:type": null, "operator": null, "addr:level": null, "name:yue": null, "contact:facebook": null, "community_centre": null, "disused:amenity": null, "designation": null, "level": null, "denomination": null, "addr:unit": null, "addr:street": null, "addr:housenumber": null, "addr:floor": null, "addr:door": null, "tower:type": null, "man_made": null, "entrance": "yes", "barrier": null, "name:zh": null, "name:en": null, "name": null, "amenity": null }, "geometry": { "type": "Point", "coordinates": [ 114.1620751, 22.3242073 ] } },
{ "type": "Feature", "properties": { "fid": 32, "full_id": "n10727804645", "osm_id": "10727804645", "osm_type": "node", "religion": "buddhist", "wheelchair": null, "vehicle": null, "locked": null, "books": "religion", "addr:street:zh": "洗衣街", "addr:street:en": "Sai Yee Street", "shop": "books", "phone": null, "operator:zh": null, "operator:wikidata": null, "operator:en": null, "operation": null, "network:area": null, "name:etymology:zh": null, "name:etymology:en": null, "name:etymology": null, "level:ref": null, "fax": null, "email": null, "designation:zh": null, "designation:wikidata": null, "designation:en": null, "contact:phone": null, "contact:fax": null, "contact:email": null, "community_centre:for": null, "brand:zh": null, "brand:en": null, "brand": null, "branch:zh": null, "branch:en": null, "branch": null, "addr:full:en": null, "addr:full": null, "door": null, "access": null, "gate:material": null, "website": null, "operator:type": null, "operator": null, "addr:level": null, "name:yue": null, "contact:facebook": null, "community_centre": null, "disused:amenity": null, "designation": null, "level": null, "denomination": null, "addr:unit": null, "addr:street": "洗衣街 Sai Yee Street", "addr:housenumber": "185", "addr:floor": null, "addr:door": null, "tower:type": null, "man_made": null, "entrance": null, "barrier": null, "name:zh": "佛哲書舍", "name:en": "Buddhist Philosophy Bookshop", "name": "佛哲書舍 Buddhist Philosophy Bookshop", "amenity": null }, "geometry": { "type": "Point", "coordinates": [ 114.1707465, 22.3234624 ] } },
{ "type": "Feature", "properties": { "fid": 33, "full_id": "n10913607171", "osm_id": "10913607171", "osm_type": "node", "religion": "christian", "wheelchair": null, "vehicle": null, "locked": null, "books": null, "addr:street:zh": null, "addr:street:en": null, "shop": null, "phone": null, "operator:zh": null, "operator:wikidata": null, "operator:en": null, "operation": null, "network:area": null, "name:etymology:zh": null, "name:etymology:en": null, "name:etymology": null, "level:ref": null, "fax": null, "email": null, "designation:zh": null, "designation:wikidata": null, "designation:en": null, "contact:phone": null, "contact:fax": null, "contact:email": null, "community_centre:for": null, "brand:zh": null, "brand:en": null, "brand": null, "branch:zh": null, "branch:en": null, "branch": null, "addr:full:en": null, "addr:full": null, "door": null, "access": null, "gate:material": null, "website": null, "operator:type": null, "operator": null, "addr:level": null, "name:yue": null, "contact:facebook": null, "community_centre": null, "disused:amenity": null, "designation": null, "level": null, "denomination": "pentecostal", "addr:unit": null, "addr:street": null, "addr:housenumber": null, "addr:floor": null, "addr:door": null, "tower:type": null, "man_made": null, "entrance": null, "barrier": null, "name:zh": "四方福音會活泉堂", "name:en": "Living Spring Foursquare Gospel Church", "name": "四方福音會活泉堂 Living Spring Foursquare Gospel Church", "amenity": "place_of_worship" }, "geometry": { "type": "Point", "coordinates": [ 114.1679538, 22.3274283 ] } },
{ "type": "Feature", "properties": { "fid": 34, "full_id": "n11037990151", "osm_id": "11037990151", "osm_type": "node", "religion": null, "wheelchair": null, "vehicle": null, "locked": null, "books": null, "addr:street:zh": null, "addr:street:en": null, "shop": null, "phone": null, "operator:zh": null, "operator:wikidata": null, "operator:en": null, "operation": null, "network:area": null, "name:etymology:zh": null, "name:etymology:en": null, "name:etymology": null, "level:ref": null, "fax": null, "email": null, "designation:zh": null, "designation:wikidata": null, "designation:en": null, "contact:phone": null, "contact:fax": null, "contact:email": null, "community_centre:for": null, "brand:zh": null, "brand:en": null, "brand": null, "branch:zh": null, "branch:en": null, "branch": null, "addr:full:en": null, "addr:full": null, "door": "hinged", "access": "private", "gate:material": null, "website": null, "operator:type": null, "operator": null, "addr:level": null, "name:yue": null, "contact:facebook": null, "community_centre": null, "disused:amenity": null, "designation": null, "level": null, "denomination": null, "addr:unit": null, "addr:street": null, "addr:housenumber": null, "addr:floor": null, "addr:door": null, "tower:type": null, "man_made": null, "entrance": "main", "barrier": "gate", "name:zh": null, "name:en": null, "name": null, "amenity": null }, "geometry": { "type": "Point", "coordinates": [ 114.1879932, 22.3242761 ] } },
{ "type": "Feature", "properties": { "fid": 35, "full_id": "n11711238472", "osm_id": "11711238472", "osm_type": "node", "religion": "christian", "wheelchair": null, "vehicle": null, "locked": null, "books": null, "addr:street:zh": null, "addr:street:en": null, "shop": null, "phone": null, "operator:zh": null, "operator:wikidata": null, "operator:en": null, "operation": null, "network:area": null, "name:etymology:zh": null, "name:etymology:en": null, "name:etymology": null, "level:ref": null, "fax": null, "email": null, "designation:zh": null, "designation:wikidata": null, "designation:en": null, "contact:phone": null, "contact:fax": null, "contact:email": null, "community_centre:for": null, "brand:zh": null, "brand:en": null, "brand": null, "branch:zh": null, "branch:en": null, "branch": null, "addr:full:en": null, "addr:full": null, "door": null, "access": null, "gate:material": null, "website": null, "operator:type": null, "operator": null, "addr:level": null, "name:yue": null, "contact:facebook": null, "community_centre": null, "disused:amenity": null, "designation": null, "level": null, "denomination": "lutheran", "addr:unit": null, "addr:street": null, "addr:housenumber": null, "addr:floor": null, "addr:door": null, "tower:type": null, "man_made": null, "entrance": null, "barrier": null, "name:zh": "信義會深信堂", "name:en": "Faith Lutheran Church", "name": "信義會深信堂 Faith Lutheran Church", "amenity": "place_of_worship" }, "geometry": { "type": "Point", "coordinates": [ 114.1653898, 22.3351718 ] } },
{ "type": "Feature", "properties": { "fid": 36, "full_id": "n11758214963", "osm_id": "11758214963", "osm_type": "node", "religion": "christian", "wheelchair": null, "vehicle": null, "locked": null, "books": null, "addr:street:zh": null, "addr:street:en": null, "shop": null, "phone": null, "operator:zh": null, "operator:wikidata": null, "operator:en": null, "operation": null, "network:area": null, "name:etymology:zh": null, "name:etymology:en": null, "name:etymology": null, "level:ref": null, "fax": null, "email": null, "designation:zh": null, "designation:wikidata": null, "designation:en": null, "contact:phone": null, "contact:fax": null, "contact:email": null, "community_centre:for": null, "brand:zh": null, "brand:en": null, "brand": null, "branch:zh": null, "branch:en": null, "branch": null, "addr:full:en": null, "addr:full": null, "door": null, "access": null, "gate:material": null, "website": null, "operator:type": null, "operator": null, "addr:level": null, "name:yue": null, "contact:facebook": null, "community_centre": null, "disused:amenity": null, "designation": null, "level": null, "denomination": null, "addr:unit": null, "addr:street": "汝州街 Yu Chau Street", "addr:housenumber": null, "addr:floor": null, "addr:door": null, "tower:type": null, "man_made": null, "entrance": null, "barrier": null, "name:zh": "金巴崙長老會九龍堂", "name:en": "Cumberland Presbyterian Church Kowloon", "name": "金巴崙長老會九龍堂 Cumberland Presbyterian Church Kowloon", "amenity": "place_of_worship" }, "geometry": { "type": "Point", "coordinates": [ 114.1650688, 22.3273709 ] } },
{ "type": "Feature", "properties": { "fid": 37, "full_id": "n11849666162", "osm_id": "11849666162", "osm_type": "node", "religion": "christian", "wheelchair": null, "vehicle": null, "locked": null, "books": null, "addr:street:zh": null, "addr:street:en": null, "shop": null, "phone": "+852 2721 0652", "operator:zh": null, "operator:wikidata": null, "operator:en": null, "operation": null, "network:area": null, "name:etymology:zh": null, "name:etymology:en": null, "name:etymology": null, "level:ref": null, "fax": null, "email": null, "designation:zh": null, "designation:wikidata": null, "designation:en": null, "contact:phone": null, "contact:fax": null, "contact:email": null, "community_centre:for": null, "brand:zh": null, "brand:en": null, "brand": null, "branch:zh": null, "branch:en": null, "branch": null, "addr:full:en": null, "addr:full": null, "door": null, "access": null, "gate:material": null, "website": "http://lighthouseministries.hk", "operator:type": null, "operator": null, "addr:level": null, "name:yue": null, "contact:facebook": null, "community_centre": null, "disused:amenity": null, "designation": null, "level": null, "denomination": null, "addr:unit": null, "addr:street": null, "addr:housenumber": null, "addr:floor": null, "addr:door": null, "tower:type": null, "man_made": null, "entrance": null, "barrier": null, "name:zh": "靈光國際教會", "name:en": "Lighthouse International Christian Church", "name": "靈光國際教會 Lighthouse International Christian Church", "amenity": "place_of_worship" }, "geometry": { "type": "Point", "coordinates": [ 114.1746406, 22.3027255 ] } },
{ "type": "Feature", "properties": { "fid": 38, "full_id": "n12947825028", "osm_id": "12947825028", "osm_type": "node", "religion": null, "wheelchair": null, "vehicle": null, "locked": null, "books": null, "addr:street:zh": null, "addr:street:en": null, "shop": null, "phone": null, "operator:zh": null, "operator:wikidata": null, "operator:en": null, "operation": null, "network:area": null, "name:etymology:zh": null, "name:etymology:en": null, "name:etymology": null, "level:ref": null, "fax": null, "email": null, "designation:zh": null, "designation:wikidata": null, "designation:en": null, "contact:phone": null, "contact:fax": null, "contact:email": null, "community_centre:for": null, "brand:zh": null, "brand:en": null, "brand": null, "branch:zh": null, "branch:en": null, "branch": null, "addr:full:en": null, "addr:full": null, "door": null, "access": null, "gate:material": null, "website": null, "operator:type": null, "operator": null, "addr:level": null, "name:yue": null, "contact:facebook": null, "community_centre": null, "disused:amenity": null, "designation": null, "level": null, "denomination": null, "addr:unit": null, "addr:street": null, "addr:housenumber": null, "addr:floor": null, "addr:door": null, "tower:type": null, "man_made": null, "entrance": null, "barrier": "gate", "name:zh": null, "name:en": null, "name": null, "amenity": null }, "geometry": { "type": "Point", "coordinates": [ 114.149538, 22.3332066 ] } },
{ "type": "Feature", "properties": { "fid": 39, "full_id": "n13403505974", "osm_id": "13403505974", "osm_type": "node", "religion": null, "wheelchair": null, "vehicle": null, "locked": null, "books": null, "addr:street:zh": null, "addr:street:en": null, "shop": null, "phone": null, "operator:zh": null, "operator:wikidata": null, "operator:en": null, "operation": null, "network:area": null, "name:etymology:zh": null, "name:etymology:en": null, "name:etymology": null, "level:ref": null, "fax": null, "email": null, "designation:zh": null, "designation:wikidata": null, "designation:en": null, "contact:phone": null, "contact:fax": null, "contact:email": null, "community_centre:for": null, "brand:zh": null, "brand:en": null, "brand": null, "branch:zh": null, "branch:en": null, "branch": null, "addr:full:en": null, "addr:full": null, "door": null, "access": null, "gate:material": null, "website": null, "operator:type": null, "operator": null, "addr:level": null, "name:yue": null, "contact:facebook": null, "community_centre": null, "disused:amenity": null, "designation": null, "level": null, "denomination": null, "addr:unit": null, "addr:street": null, "addr:housenumber": null, "addr:floor": null, "addr:door": null, "tower:type": null, "man_made": null, "entrance": null, "barrier": "gate", "name:zh": null, "name:en": null, "name": null, "amenity": null }, "geometry": { "type": "Point", "coordinates": [ 114.16338, 22.313262 ] } },
{ "type": "Feature", "properties": { "fid": 40, "full_id": "n13403505975", "osm_id": "13403505975", "osm_type": "node", "religion": null, "wheelchair": null, "vehicle": null, "locked": null, "books": null, "addr:street:zh": null, "addr:street:en": null, "shop": null, "phone": null, "operator:zh": null, "operator:wikidata": null, "operator:en": null, "operation": null, "network:area": null, "name:etymology:zh": null, "name:etymology:en": null, "name:etymology": null, "level:ref": null, "fax": null, "email": null, "designation:zh": null, "designation:wikidata": null, "designation:en": null, "contact:phone": null, "contact:fax": null, "contact:email": null, "community_centre:for": null, "brand:zh": null, "brand:en": null, "brand": null, "branch:zh": null, "branch:en": null, "branch": null, "addr:full:en": null, "addr:full": null, "door": null, "access": null, "gate:material": null, "website": null, "operator:type": null, "operator": null, "addr:level": null, "name:yue": null, "contact:facebook": null, "community_centre": null, "disused:amenity": null, "designation": null, "level": null, "denomination": null, "addr:unit": null, "addr:street": null, "addr:housenumber": null, "addr:floor": null, "addr:door": null, "tower:type": null, "man_made": null, "entrance": null, "barrier": "gate", "name:zh": null, "name:en": null, "name": null, "amenity": null }, "geometry": { "type": "Point", "coordinates": [ 114.1642845, 22.3135735 ] } },
{ "type": "Feature", "properties": { "fid": 41, "full_id": "n13592130060", "osm_id": "13592130060", "osm_type": "node", "religion": null, "wheelchair": null, "vehicle": null, "locked": null, "books": null, "addr:street:zh": null, "addr:street:en": null, "shop": null, "phone": null, "operator:zh": null, "operator:wikidata": null, "operator:en": null, "operation": null, "network:area": null, "name:etymology:zh": null, "name:etymology:en": null, "name:etymology": null, "level:ref": null, "fax": null, "email": null, "designation:zh": null, "designation:wikidata": null, "designation:en": null, "contact:phone": null, "contact:fax": null, "contact:email": null, "community_centre:for": null, "brand:zh": null, "brand:en": null, "brand": null, "branch:zh": null, "branch:en": null, "branch": null, "addr:full:en": null, "addr:full": null, "door": null, "access": null, "gate:material": null, "website": null, "operator:type": null, "operator": null, "addr:level": null, "name:yue": null, "contact:facebook": null, "community_centre": null, "disused:amenity": null, "designation": null, "level": null, "denomination": null, "addr:unit": null, "addr:street": null, "addr:housenumber": null, "addr:floor": null, "addr:door": null, "tower:type": null, "man_made": null, "entrance": "main", "barrier": "gate", "name:zh": null, "name:en": null, "name": null, "amenity": null }, "geometry": { "type": "Point", "coordinates": [ 114.1780859, 22.3258591 ] } },
{ "type": "Feature", "properties": { "fid": 42, "full_id": "n13592130067", "osm_id": "13592130067", "osm_type": "node", "religion": null, "wheelchair": null, "vehicle": null, "locked": "no", "books": null, "addr:street:zh": null, "addr:street:en": null, "shop": null, "phone": null, "operator:zh": null, "operator:wikidata": null, "operator:en": null, "operation": null, "network:area": null, "name:etymology:zh": null, "name:etymology:en": null, "name:etymology": null, "level:ref": null, "fax": null, "email": null, "designation:zh": null, "designation:wikidata": null, "designation:en": null, "contact:phone": null, "contact:fax": null, "contact:email": null, "community_centre:for": null, "brand:zh": null, "brand:en": null, "brand": null, "branch:zh": null, "branch:en": null, "branch": null, "addr:full:en": null, "addr:full": null, "door": null, "access": null, "gate:material": null, "website": null, "operator:type": null, "operator": null, "addr:level": null, "name:yue": null, "contact:facebook": null, "community_centre": null, "disused:amenity": null, "designation": null, "level": null, "denomination": null, "addr:unit": null, "addr:street": "窩打老道 Waterloo Road", "addr:housenumber": "99A", "addr:floor": null, "addr:door": null, "tower:type": null, "man_made": null, "entrance": "yes", "barrier": "gate", "name:zh": null, "name:en": null, "name": null, "amenity": null }, "geometry": { "type": "Point", "coordinates": [ 114.1782944, 22.3262843 ] } },
{ "type": "Feature", "properties": { "fid": 43, "full_id": "n13592130071", "osm_id": "13592130071", "osm_type": "node", "religion": null, "wheelchair": null, "vehicle": null, "locked": "no", "books": null, "addr:street:zh": null, "addr:street:en": null, "shop": null, "phone": null, "operator:zh": null, "operator:wikidata": null, "operator:en": null, "operation": null, "network:area": null, "name:etymology:zh": null, "name:etymology:en": null, "name:etymology": null, "level:ref": null, "fax": null, "email": null, "designation:zh": null, "designation:wikidata": null, "designation:en": null, "contact:phone": null, "contact:fax": null, "contact:email": null, "community_centre:for": null, "brand:zh": null, "brand:en": null, "brand": null, "branch:zh": null, "branch:en": null, "branch": null, "addr:full:en": null, "addr:full": null, "door": null, "access": null, "gate:material": null, "website": null, "operator:type": null, "operator": null, "addr:level": null, "name:yue": null, "contact:facebook": null, "community_centre": null, "disused:amenity": null, "designation": null, "level": null, "denomination": null, "addr:unit": null, "addr:street": null, "addr:housenumber": null, "addr:floor": null, "addr:door": null, "tower:type": null, "man_made": null, "entrance": "garage", "barrier": "gate", "name:zh": null, "name:en": null, "name": null, "amenity": null }, "geometry": { "type": "Point", "coordinates": [ 114.1776124, 22.3263395 ] } },
{ "type": "Feature", "properties": { "fid": 44, "full_id": "n13597537822", "osm_id": "13597537822", "osm_type": "node", "religion": null, "wheelchair": null, "vehicle": null, "locked": "no", "books": null, "addr:street:zh": null, "addr:street:en": null, "shop": null, "phone": null, "operator:zh": null, "operator:wikidata": null, "operator:en": null, "operation": null, "network:area": null, "name:etymology:zh": null, "name:etymology:en": null, "name:etymology": null, "level:ref": null, "fax": null, "email": null, "designation:zh": null, "designation:wikidata": null, "designation:en": null, "contact:phone": null, "contact:fax": null, "contact:email": null, "community_centre:for": null, "brand:zh": null, "brand:en": null, "brand": null, "branch:zh": null, "branch:en": null, "branch": null, "addr:full:en": null, "addr:full": null, "door": null, "access": null, "gate:material": null, "website": null, "operator:type": null, "operator": null, "addr:level": null, "name:yue": null, "contact:facebook": null, "community_centre": null, "disused:amenity": null, "designation": null, "level": null, "denomination": null, "addr:unit": null, "addr:street": null, "addr:housenumber": null, "addr:floor": null, "addr:door": null, "tower:type": null, "man_made": null, "entrance": "yes", "barrier": "gate", "name:zh": null, "name:en": null, "name": null, "amenity": null }, "geometry": { "type": "Point", "coordinates": [ 114.1782931, 22.3262609 ] } },
{ "type": "Feature", "properties": { "fid": 45, "full_id": "n13597537859", "osm_id": "13597537859", "osm_type": "node", "religion": null, "wheelchair": null, "vehicle": "private", "locked": "yes", "books": null, "addr:street:zh": null, "addr:street:en": null, "shop": null, "phone": null, "operator:zh": null, "operator:wikidata": null, "operator:en": null, "operation": null, "network:area": null, "name:etymology:zh": null, "name:etymology:en": null, "name:etymology": null, "level:ref": null, "fax": null, "email": null, "designation:zh": null, "designation:wikidata": null, "designation:en": null, "contact:phone": null, "contact:fax": null, "contact:email": null, "community_centre:for": null, "brand:zh": null, "brand:en": null, "brand": null, "branch:zh": null, "branch:en": null, "branch": null, "addr:full:en": null, "addr:full": null, "door": null, "access": null, "gate:material": null, "website": null, "operator:type": null, "operator": null, "addr:level": null, "name:yue": null, "contact:facebook": null, "community_centre": null, "disused:amenity": null, "designation": null, "level": null, "denomination": null, "addr:unit": null, "addr:street": null, "addr:housenumber": null, "addr:floor": null, "addr:door": null, "tower:type": null, "man_made": null, "entrance": "main", "barrier": "gate", "name:zh": null, "name:en": null, "name": null, "amenity": null }, "geometry": { "type": "Point", "coordinates": [ 114.1779689, 22.3258379 ] } },
{ "type": "Feature", "properties": { "fid": 46, "full_id": "n13597537865", "osm_id": "13597537865", "osm_type": "node", "religion": null, "wheelchair": null, "vehicle": "private", "locked": "yes", "books": null, "addr:street:zh": null, "addr:street:en": null, "shop": null, "phone": null, "operator:zh": null, "operator:wikidata": null, "operator:en": null, "operation": null, "network:area": null, "name:etymology:zh": null, "name:etymology:en": null, "name:etymology": null, "level:ref": null, "fax": null, "email": null, "designation:zh": null, "designation:wikidata": null, "designation:en": null, "contact:phone": null, "contact:fax": null, "contact:email": null, "community_centre:for": null, "brand:zh": null, "brand:en": null, "brand": null, "branch:zh": null, "branch:en": null, "branch": null, "addr:full:en": null, "addr:full": null, "door": null, "access": null, "gate:material": null, "website": null, "operator:type": null, "operator": null, "addr:level": null, "name:yue": null, "contact:facebook": null, "community_centre": null, "disused:amenity": null, "designation": null, "level": null, "denomination": null, "addr:unit": null, "addr:street": null, "addr:housenumber": null, "addr:floor": null, "addr:door": null, "tower:type": null, "man_made": null, "entrance": "main", "barrier": "gate", "name:zh": null, "name:en": null, "name": null, "amenity": null }, "geometry": { "type": "Point", "coordinates": [ 114.1782117, 22.3258818 ] } },
{ "type": "Feature", "properties": { "fid": 47, "full_id": "n13597540616", "osm_id": "13597540616", "osm_type": "node", "religion": null, "wheelchair": "yes", "vehicle": null, "locked": null, "books": null, "addr:street:zh": null, "addr:street:en": null, "shop": null, "phone": null, "operator:zh": null, "operator:wikidata": null, "operator:en": null, "operation": null, "network:area": null, "name:etymology:zh": null, "name:etymology:en": null, "name:etymology": null, "level:ref": null, "fax": null, "email": null, "designation:zh": null, "designation:wikidata": null, "designation:en": null, "contact:phone": null, "contact:fax": null, "contact:email": null, "community_centre:for": null, "brand:zh": null, "brand:en": null, "brand": null, "branch:zh": null, "branch:en": null, "branch": null, "addr:full:en": null, "addr:full": null, "door": null, "access": null, "gate:material": null, "website": null, "operator:type": null, "operator": null, "addr:level": null, "name:yue": null, "contact:facebook": null, "community_centre": null, "disused:amenity": null, "designation": null, "level": null, "denomination": null, "addr:unit": null, "addr:street": null, "addr:housenumber": null, "addr:floor": null, "addr:door": null, "tower:type": null, "man_made": null, "entrance": "main", "barrier": null, "name:zh": null, "name:en": null, "name": null, "amenity": null }, "geometry": { "type": "Point", "coordinates": [ 114.177726, 22.3263126 ] } }
]
}
